name,lon,lat,type,address,phone,description,volume
Mostellar Medical Center,-88.2372043,30.4263864,0,"12701 Padgett Switch Rd, Irvington, AL 36544, USA",(251) 824-2174,,
Alabama Regional Medical Services,-86.8140798,33.5526409,0,"2817 30th Ave N, Birmingham, AL 35207, USA",(205) 407-9696,,
Christ Health - Woodlawn,-86.7492933,33.5415957,0,"5720 1st Ave S, Birmingham, AL 35212, USA",(205) 380-9455,,
Cahaba Medical Care - Centreville,-87.147279,32.9503292,1,"405 Belcher St, Centreville, AL 35042, USA",(205) 926-2992,,
Quality of Life Health Complex,-85.9559855,33.9984027,1,"1411 Piedmont Cutoff Hwy, Gadsden, AL 35903, USA",(256) 492-0131,,
Thrive Alabama,-86.5873927,34.7226273,0,"600 St Clair Ave SW bldg 3, Huntsville, AL 35801, USA",(256) 536-4700,,
AltaPointe Health Adult Outpatient - Mobile,-88.0967187,30.7057021,0,"2400 Gordon Smith Dr, Mobile, AL 36617, USA",(251) 473-4423,,
"Franklin Primary Health Center, Inc.",-88.0656646,30.6995835,0,"1303 Dr Martin Luther King Jr Ave, Mobile, AL 36603, USA",(251) 432-4117,,
Mobile County Health Department,-88.0763953,30.6984635,0,"248 Cox St, Mobile, AL 36604, USA",(251) 694-3954,,
Health Services Inc,-86.2838808,32.4172346,0,"100 E Vandiver Blvd, Montgomery, AL 36110, USA",(334) 832-4338,,
"Northeast Alabama Health Services, Inc",-86.0405257,34.6637184,0,"309 Taylor St, Scottsboro, AL 35768, USA",(256) 259-5313,,
"Rural Health Medical Program, Inc.",-87.0526859,32.4274261,0,"101 Park Place, Selma, AL 36701, USA",(334) 874-7428,,
Southeast Alabama Rural Health,-85.9605539,31.7652172,0,"1414 Elba Hwy, Troy, AL 36079, USA",(334) 670-6726,,
Maude L. Whatley Health Center,-87.5767932,33.1868174,0,"2731 Martin Luther King Jr Blvd, Tuscaloosa, AL 35401, USA",(205) 758-6647,,
Aleutian Pribilof Islands Association,-149.8611145,61.1744384,0,"1131 E International Airport Rd, Anchorage, AK 99518, USA",(907) 276-2700,,
Eastern Aleutian Tribes Inc,-149.8871978,61.1898406,1,"3380 C St #100, Anchorage, AK 99503, USA",(907) 277-1440,,
Southcentral Foundation,-149.795892,61.1823417,0,"Southcentral Foundation Administration Building, 4501 Diplomacy Dr, Anchorage, AK 99508, USA",(907) 729-4955,,
Yukon Kuskokwim Health Corporation,-161.7969814,60.7831733,0,"185 Hoffman Rd, Bethel, AK 99559, USA",(907) 543-5158,,
Native Village of Eyak,-145.7646595,60.5426856,0,"110 Nicholoff Way, Cordova, AK 99574, USA",(907) 424-7738,,
Bristol Bay Area Health Corporation,-158.5368215,59.0006067,0,"6000 Kanakanak Rd, Dillingham, AK 99576, USA",(800) 478-5201,,
Tanana Chiefs Conference,-147.7106986,64.8440859,0,"122 1st Ave, Fairbanks, AK 99701, USA",(907) 452-8251,,
Council-Athabascan Tribal,-145.2513402,66.56735,0,"101 Main St, Fort Yukon, AK 99740, USA",(907) 662-2587,,
Maniiḷaq Health Center,-162.5868333,66.8961237,0,"436 5th Ave, Kotzebue, AK 99752, USA",(907) 442-3321,,
Norton Sound Health Corporation,-165.387086,64.5000585,0,"1000 Greg Kruschek Avenue, Nome, AK 99762, USA",(907) 443-3311,,
Seldovia Village Tribe,-151.7119381,59.4370189,0,"206 Main St, Seldovia, AK 99663, USA",(907) 234-7898,,
Yakutat Tlingit Tribe,-139.7318434,59.5440109,0,"716 Ocean Cape Rd, Yakutat, AK 99689, USA",(907) 784-3238,,
DOH-Environmental Health Services Division,-170.692393,-14.2763878,0,"Fagatogo, Pago Pago, Eastern District 96799, American Samoa",,,
Sun Life Family Health Center,-111.714972,32.8821647,1,"865 N Arizola Rd, Casa Grande, AZ 85122, USA",(520) 836-3446,,
"Pediatric Center of Excellence - Chiricahua Community Health Centers, Inc.",-109.5492454,31.3492938,0,"815 15th St, Douglas, AZ 85607, USA",(520) 364-5437,,
North Country HealthCare - Flagstaff (4th Street),-111.6126929,35.2168899,0,"2920 N Fourth St, Flagstaff, AZ 86004, USA",(928) 522-9400,,
United Community Health Center at Green Valley Hospital,-111.0104217,31.8061871,0,"4475 I-19 Frontage Rd #139, Green Valley, AZ 85614, USA",(520) 407-5910,,
Mariposa Community Health Center,-110.9335064,31.3656886,0,"1852 N Mastick Way, Nogales, AZ 85621, USA",(520) 281-1550,,
Adelante Healthcare,-112.0731297,33.4835789,1,"3033 N Central Ave Suite 145, Phoenix, AZ 85012, USA",(877) 809-5092,,
Circle the City,-112.0799916,33.4944925,0,"333 W Indian School Rd, Phoenix, AZ 85013, USA",(602) 776-9000,,
Valleywise Health Medical Center,-112.0261916,33.4572917,0,"2601 E Roosevelt St, Phoenix, AZ 85008, USA",(602) 344-5011,,
Mountain Park Health Center Maryvale Clinic,-112.2011586,33.4794354,1,"6601 W Thomas Rd, Phoenix, AZ 85033, USA",(602) 243-7277,,
Native Health,-112.0725191,33.4945269,0,"Building C, 4041 N Central Ave, Phoenix, AZ 85012, USA",(602) 279-5262,,
Terros Health -Central Office,-112.0732533,33.4826645,0,"3003 N Central Ave Suite #400, Phoenix, AZ 85012, USA",(602) 685-6000,,
Valle del Sol,-112.0746715,33.4356309,0,"1209 S 1st Ave, Phoenix, AZ 85003, USA",(602) 258-6797,,
Wesley Community Center,-112.060004,33.434765,0,"1300 S 10th St, Phoenix, AZ 85034, USA",(602) 257-4323,,
Neighborhood Outreach Access To Health,-111.92196,33.4903919,1,"3634 N Drinkwater Blvd, Scottsdale, AZ 85251, USA",,,
Sunset Community Health Center,-114.7099416,32.5967846,1,"115 N Somerton Ave, Somerton, AZ 85350, USA",(928) 627-2051,,
Tuba City Regional Health Care,-111.2369947,36.1359847,0,"167 Main St, Tuba City, AZ 86045, USA",(866) 976-5941,,
El Rio Community Health Center Adminstration,-110.9789256,32.2232839,1,"450 W Paseo Redondo, Tucson, AZ 85701, USA",(520) 670-3909,,
ARcare - Augusta Medical Clinic,-91.362791,35.2927483,0,"400 Hwy 64 E, Augusta, AR 72006, USA",(870) 347-2508,,
Mainline Health Systems Inc,-91.5115391,33.2390033,0,"223 N Main St, Portland, AR 71663, USA",(870) 737-2221,,
Community Clinic- Springdale Medical | Pediatrics and Women's Health,-94.1230514,36.1854151,1,"614 E Emma Ave #300, Springdale, AR 72764, USA",(479) 751-7417,,
NECC Administration,-118.1517122,34.094865,0,"2550 W Main St #301, Alhambra, CA 91801, USA",(626) 457-6900,,
Northeast Community Clinic,-118.1517377,34.094934,0,"2550 W Main St #301, Alhambra, CA 91801, USA",(626) 457-6900,,
"Central City Community Health Center Inc., - Lincoln",-117.9468218,33.8321923,0,"1820 W Lincoln Ave #1814, Anaheim, CA 92801, USA",(714) 805-7719,,
Open Door Community Health Center,-124.0916628,40.896393,0,"3800 Janes Rd, Arcata, CA 95521, USA",(707) 822-1385,,
El Proyecto Del Barrio,-118.437257,34.2315227,0,"8902 Woodman Ave, Arleta, CA 91331, USA",(818) 830-7033,,
Avenal Community Health Center,-120.1214198,36.0076729,0,"1000 Skyline Blvd, Avenal, CA 93204, USA",(559) 386-4500,,
Clinica Sierra Vista - 34th Street Community Health Center,-119.0086268,35.3967924,1,"2000 Physicians Blvd, Bakersfield, CA 93301, USA",(661) 324-1455,,
Family Health Care Centers of Greater Los Angeles,-118.1476448,33.9732363,0,"6501 S, Garfield Ave, Bell Gardens, CA 90201, USA",(562) 928-9600,,
LifeLong West Berkeley Health Center,-122.2970458,37.8669849,1,"837 Addison St, Berkeley, CA 94710, USA",(510) 981-4100,,
"Brawley Medical Clinic - Clinicas de Salud del Pueblo, Inc.",-115.5278029,32.9782583,0,"900 Main St, Brawley, CA 92227, USA",(760) 344-6471,,
Korean Community Services,-118.0074623,33.8581677,0,"7212 Orangethorpe Ave Suite 8, Buena Park, CA 90621, USA",(714) 449-1125,,
Yehowa Medical Services,-118.2671389,33.8465483,0,"454 Carson Plaza Dr, Carson, CA 90746, USA",(323) 776-1500,,
AltaMed Health Services Corporation,-118.1532157,34.0191973,1,"5436 Whittier Blvd, Los Angeles, CA 90022, USA",(888) 363-1293,,
De Novo Health Care Inc.,-118.215244,33.903617,0,"803 Rosecrans Ave, Compton, CA 90221, USA",(310) 605-4800,,
ROADS Community Care Clinic,-118.208363,33.894956,0,"121 S Long Beach Blvd, Compton, CA 90221, USA",(855) 645-0033,,
Share Our Selves,-117.9268629,33.6325332,0,"1550 Superior Ave, Costa Mesa, CA 92627, USA",(949) 270-2100,,
The Achievable Foundation,-118.3919144,33.984195,0,"5901 Green Valley Cir UNIT 405, Culver City, CA 90230, USA",(424) 266-7474,,
Communicare Health Center,-121.7695775,38.563708,0,"2051 John Jones Rd, Davis, CA 95616, USA",(530) 758-2060,,
"South County Community Health Center, Inc.",-122.1338668,37.4711824,0,"ste a east 94303, 1798 Bay Rd, Palo Alto, CA 94303, USA",(650) 330-7400,,
"Southern California Medical Center, Inc.",-118.0163454,34.0608155,0,"12100 Valley Blvd #109a, El Monte, CA 91732, USA",(626) 575-7500,,
Neighborhood Healthcare - Escondido,-117.0727663,33.1286381,0,"460 N Elm St, Escondido, CA 92025, USA",(760) 520-8100,,
Fairfield,-122.0405151,38.2491956,0,"Fairfield, CA, USA",,,
Bay Area Community Health,-121.9769658,37.5489421,0,"39500 Liberty St, Fremont, CA 94538, USA",(510) 770-8040,,
United Health Centers-Administration Building,-119.8633293,36.8379472,1,"3875 W Beechwood Ave, Fresno, CA 93722, USA",(800) 492-4227,,
Nhan Hoa Comprehensive Health Care Clinic,-117.9965813,33.7739924,0,"7761 Garden Grove Blvd, Garden Grove, CA 92841, USA",(714) 898-8888,,
"All For Health, Health For All",-118.2492201,34.1466218,0,"519 E Broadway, Glendale, CA 91205, USA",(818) 409-3020,,
"Comprehensive Community Health Centers, Inc.",-118.2039119,34.1391136,0,"1704 Colorado Blvd, Eagle Rock, CA 90041, USA",(323) 256-4116,,
Karuk Tribe Administration,-123.3800585,41.7910804,0,"64236 2nd Ave, Happy Camp, CA 96039, USA",(530) 493-1600,,
Behavioral Health Services Inc,-118.326804,33.889539,0,"15519 Crenshaw Blvd, Gardena, CA 90249, USA",(310) 679-9126,,
Alliance Medical Center,-122.8654598,38.6273915,0,"1381 University Ave, Healdsburg, CA 95448, USA",(707) 433-5494,,
Imperial Beach Community Clinic,-117.1134051,32.5836302,0,"949 Palm Ave, Imperial Beach, CA 91932, USA",(619) 429-3733,,
University of California Irvine,-117.8442962,33.6404952,0,"Irvine, CA 92697, USA",(949) 824-5011,,
Hi-Desert Medical Center,-116.2751358,34.1321059,0,"6601 White Feather Rd, Joshua Tree, CA 92252, USA",(760) 366-3711,,
Livingston Health Center,-120.7341919,37.3852933,0,"600 B St, Livingston, CA 95334, USA",(833) 850-3500,,
The Children's Clinic Central Long Beach Family Health Center,-118.1933925,33.8000673,0,"2360 Pacific Ave, Long Beach, CA 90806, USA",(844) 822-4646,,
Community Medical Wellness Centers USA,-118.1743871,33.7824258,0,"1360 E Anaheim St, Long Beach, CA 90813, USA",(562) 270-0324,,
APLA Health - Gleicher/Chen Health Center,-118.356329,34.018727,0,"3743 South La Brea Ave, Los Angeles, CA 90016, USA",(323) 329-9900,,
Arroyo Vista Family Health Center,-118.1888713,34.1113273,0,"6000 N Figueroa St, Highland Park, CA 90042, USA",(866) 616-9344,,
"Asian Pacific Health Care Venture, Inc.",-118.2871437,34.0989121,0,"1530 Hillhurst Ave, Los Angeles, CA 90027, USA",(323) 644-3888,,
Benevolence Health Center,-118.335602,34.0232994,0,"3631 Crenshaw Blvd #109, Los Angeles, CA 90016, USA",(323) 732-0100,,
Chinatown Service Center,-118.2449417,34.0617172,0,"819 W Cesar Estrada Chavez Ave, Los Angeles, CA 90012, USA",(213) 808-1700,,
To Help Everyone - Western Clinic,-118.308589,34.016179,0,"3834 S Western Ave, Los Angeles, CA 90062, USA",(323) 730-1920,,
Clínica Romero,-118.2075882,34.0564766,0,"2032 Marengo St, Los Angeles, CA 90033, USA",(213) 989-7700,,
Complete Care Community Health,-118.2008731,34.0433208,0,"2928 East Cesar E Chavez Avenue, Los Angeles, CA 90033, USA",(323) 266-6700,,
Health Access,-118.2745191,34.0570614,0,"1930 Wilshire Blvd #916, Los Angeles, CA 90057, USA",(213) 413-3587,,
JWCH Institute Inc,-118.1927084,34.1099598,1,"5709 N Figueroa St, Los Angeles, CA 90042, USA",,,
Kedren Community Health Center Inc.,-118.2661803,34.0073123,0,"4211 S Avalon Blvd, Los Angeles, CA 90011, USA",(323) 233-0425,,
Los Angeles Christian Health Centers - Pico Aliso Clinic,-118.2219503,34.0431515,0,"1625 East 4th St, Los Angeles, CA 90033, USA",(213) 893-1960,,
Hollywood Sunset Free Clinic,-118.2759507,34.0870894,0,"3324 Sunset Blvd, Los Angeles, CA 90026, USA",(323) 660-2400,,
Los Angeles LGBT Center,-118.3326226,34.100385,0,"McDonald/Wright Building, 1625 Schrader Blvd, Los Angeles, CA 90028, USA",(323) 993-7500,,
Magnolia Pediatric Dentistry & Orthodontics,-87.674719,41.9109566,0,"1611 N Wolcott Ave, Chicago, IL 60622, USA",(312) 281-4860,,
San Judas Medical Group,-118.3089988,34.0902644,0,"1080 N Western Ave, Los Angeles, CA 90029, USA",(323) 957-8787,,
St. Anthony Medical Centers,-118.328997,34.1013387,0,"6368 Hollywood Blvd, Los Angeles, CA 90028, USA",(323) 469-5555,,
St John's Well Child & Family Center,-118.2715524,34.029281,1,"326 W 23rd St, Los Angeles, CA 90007, USA",(323) 541-1411,,
UMMA Community Clinic,-118.2863743,33.9749141,0,"711 W Florence Ave, Los Angeles, CA 90044, USA",(323) 789-5610,,
Via Care Community Health Center,-118.1628606,34.0407387,0,"4755 East Cesar E Chavez Avenue, East Los Angeles, CA 90022, USA",(323) 268-9191,,
Camarena Health Center - Dental Office,-120.054719,36.9637516,1,"124 S A St, Madera, CA 93638, USA",(559) 664-4000,,
Martinez,-122.1341321,38.0193657,0,"Martinez, CA 94553, USA",,,
Peach Tree Health Administration,-121.585014,39.1481539,0,"1114 Yuba St #144, Marysville, CA 95901, USA",(530) 749-3242,,
Golden Valley Health Centers,-120.4965991,37.288222,0,"797 W Childs Ave, Merced, CA 95341, USA",(209) 383-5871,,
BeverlyCare-Women's Health & OB/GYN,-118.1222381,34.013174,0,"1920 W Whittier Blvd, Montebello, CA 90640, USA",(323) 725-1519,,
Community Health Systems Inc,-117.2674186,33.9159585,0,"22675 Alessandro Blvd # 1, Moreno Valley, CA 92553, USA",(951) 571-2350,,
AAA Comprehensive Healthcare,-118.388032,34.2061724,0,"7451 Lankershim Blvd, North Hollywood, CA 91605, USA",(818) 503-9800,,
OLE Health,-122.2921168,38.3210574,0,"1141 Pear Tree Ln, Napa, CA 94558, USA",(707) 257-7821,,
Samahan Health Clinic - National City Clinic,-117.0918366,32.661154,0,"2743 Highland Ave, National City, CA 91950, USA",(844) 200-2426,,
Community Health Centers - Nipomo Medical Center,-120.4993648,35.027364,1,"150 Tejas Pl, Nipomo, CA 93444, USA",(805) 929-3211,,
Marin Community Clinics,-122.563088,38.09649,1,"6100 Redwood Blvd, Novato, CA 94945, USA",(415) 448-1500,,
Oakland,-122.2711639,37.8043514,0,"Oakland, CA, USA",,,
Asian Health Services,-122.266142,37.7967178,1,"101 8th St, Oakland, CA 94607, USA",(510) 986-6800,,
Children's Pavilion,-87.6503094,41.9679578,0,"4720 N Clarendon Ave, Chicago, IL 60640, USA",(773) 878-9700,,
"La Clínica de La Raza, Inc.",-122.2252958,37.7781354,1,"1450 Fruitvale Ave 3rd Floor, Oakland, CA 94601, USA",(510) 535-4000,,
West Oakland Health Council,-122.2876304,37.804074,0,"700 Adeline St, Oakland, CA 94607, USA",(510) 835-9610,,
Oxnard,-119.1770516,34.1975048,1,"Oxnard, CA, USA",,,
Community Health Alliance of Pasadena,-118.085342,34.1418516,0,"3160 E Del Mar Blvd #100, Pasadena, CA 91107, USA",(626) 486-9729,,
Greenville Rancheria Tribal Health Center,-122.2254645,40.1577798,0,"1425 Montgomery Rd, Red Bluff, CA 96080, USA",(530) 528-8600,,
Redwoods Rural Health Center,-123.8132042,40.1168397,0,"101 West Coast Rd # B, Redway, CA 95560, USA",(707) 923-2783,,
Riverside County Public Health,-117.4603309,33.9166973,1,"4065 County Cir Dr, Riverside, CA 92503, USA",(951) 358-5000,,
Sacramento County,-121.3541631,38.47467,0,"Sacramento County, CA, USA",,,
Clinica de Salud del Valle de Salinas,-121.6269874,36.6773746,1,"219 N Sanborn Rd, Salinas, CA 93905, USA",(831) 757-1365,,
Salinas,-121.6555013,36.6777372,0,"Salinas, CA, USA",,,
San Bernardino County,-116.419389,34.9592083,0,"San Bernardino County, CA, USA",,,
Family Health Centers of San Diego,-117.1134953,32.7153006,1,"823 Gateway Center Way, San Diego, CA 92102, USA",(619) 515-2300,,
La Maestra Community Health Centers,-117.101238,32.7505362,1,"4060 Fairmount Ave, San Diego, CA 92105, USA",(619) 255-9155,,
San Diego American Indian Health Center,-117.1642968,32.7328616,0,"2630 1st Ave, San Diego, CA 92103, USA",(619) 234-2158,,
St. Vincent de Paul Village,-117.1505508,32.7054786,0,"1501 Imperial Ave, San Diego, CA 92101, USA",(619) 233-8500,,
Northeast Valley Health Corporation (San Fernando Health Center),-118.4486988,34.2889358,1,"1600 San Fernando Rd, San Fernando, CA 91340, USA",(818) 365-8086,,
San Fernando Community Health Center,-118.4445797,34.2766073,0,"732 Mott St suite 100-110, San Fernando, CA 91340, USA",(818) 963-5690,,
Asian & Pacific Islander Wellness Center,-122.419095,37.7838223,0,"730 Polk St, San Francisco, CA 94109, USA",(415) 292-3400,,
Mission Neighborhood Health Center,-122.416586,37.764599,0,"240 Shotwell St, San Francisco, CA 94110, USA",(415) 552-3870,,
San Francisco Community Clinic Consortium,-122.415534,37.807569,1,"2720 Taylor St #430, San Francisco, CA 94133, USA",(415) 355-2222,,
S F Medical Center Outpatient,-122.4085452,37.7776074,0,"229 7th St, San Francisco, CA 94103, USA",(415) 552-5059,,
Herald Christian Health Center,-118.0910987,34.0908169,0,"923 S San Gabriel Blvd, San Gabriel, CA 91776, USA",(626) 286-8700,,
Valley Health Team - San Joaquin Health Center,-120.1845224,36.6052858,1,"21890 W Colorado Ave, San Joaquin, CA 93660, USA",(559) 693-2462,,
Gardner Family Health Network,-121.8780346,37.3256093,0,"160 E Virginia St, San Jose, CA 95112, USA",(408) 287-6200,,
Indian Health Center of Santa Clara Valley,-121.9140361,37.3018257,0,"1333 Meridian Ave, San Jose, CA 95125, USA",(408) 445-3400,,
San Jose,-121.8863286,37.3382082,0,"San Jose, CA, USA",,,
Davis Street Community Center,-122.1535341,37.7049834,0,"3081 Teagarden St, San Leandro, CA 94577, USA",(510) 347-4620,,
TrueCare San Marcos,-117.1570355,33.1404369,0,"150 Valpreda Rd, San Marcos, CA 92069, USA",(760) 736-6767,,
San Mateo,-122.3255254,37.5629917,0,"San Mateo, CA, USA",,,
"Harbor Community Clinic - Natalie Rodriguez, ANP",-118.2898975,33.7385174,0,"593 W 6th St, San Pedro, CA 90731, USA",(310) 547-0202,,
San Ysidro Health Center,-117.0472107,32.5587158,1,"4004 Beyer Blvd, San Ysidro, CA 92173, USA",(619) 662-4100,,
Serve the People Community Health Center,-117.8540484,33.7596805,0,"1206 17th St #101, Santa Ana, CA 92701, USA",(714) 352-2911,,
Santa Barbara Neighborhood Clinics,-119.6917871,34.4221777,0,"Administrative Headquarters, 414 E Cota St, Santa Barbara, CA 93101, USA",(844) 594-0343,,
Santa Barbara County,-119.6982057,34.4208321,0,"Santa Barbara County, CA, USA",,,
Santa Cruz County,-121.9579578,37.0453988,0,"Santa Cruz County, CA, USA",,,
Santa Rosa Community Health -- Vista Campus,-122.72969,38.479696,0,"3569 Round Barn Cir, Santa Rosa, CA 95403, USA",(707) 303-3600,,
Marin City Health & Wellness Center,-122.514671,37.872598,0,"630 Drake Ave, Sausalito, CA 94965, USA",(415) 339-8813,,
Inland Behavioral & Health Services,-117.2938577,34.1332048,0,"1963 N E St, San Bernardino, CA 92405, USA",(909) 881-6146,,
SAC Health System,-117.2988774,34.0967158,0,"250 S G St, San Bernardino, CA 92410, USA",(909) 382-7100,,
Community Medical Centers,-121.3008006,38.0158974,0,"7210 Murray Dr, Stockton, CA 95210, USA",(209) 373-2800,,
San Joaquin County,-121.1710389,37.9175935,0,"San Joaquin County, CA, USA",,,
"Tarzana Treatment Center, Inc.",-118.5396449,34.1798,0,"18646 W Oxnard St, Tarzana, CA 91356, USA",(818) 996-1051,,
South Bay Family Healthcare Center,-118.3492743,33.8133727,0,"23430 Hawthorne Blvd # 210, Torrance, CA 90505, USA",(310) 802-6177,,
Altura Centers for Health,-119.3380954,36.2234423,0,"1101 N Cherry St, Tulare, CA 93274, USA",(559) 686-9097,,
Hurtt Family Health Clinic,-117.8321937,33.7150453,0,"1 Hope Dr #0221, Tustin, CA 92782, USA",(714) 247-0300,,
MCHC Health Center,-123.2118316,39.1275444,0,"333 Laws Ave, Ukiah, CA 95482, USA",(707) 468-1010,,
Tiburcio Vasquez Health Center,-122.026479,37.6026417,0,"33255 9th St, Union City, CA 94587, USA",(510) 471-5907,,
Samuel Dixon Family Health Center,-118.5755579,34.4367925,0,"25115 Avenue Stanford #A104, Valencia, CA 91355, USA",(661) 257-2339,,
Venice Family Clinic,-118.4715237,33.9991486,0,"604 Rose Ave, Venice, CA 90291, USA",(310) 392-8636,,
"Clinicas del Camino Real, Inc.",-119.1593567,34.2932106,1,"200 S Wells Rd, Ventura, CA 93004, USA",(805) 647-6322,,
Family HealthCare Network - Visalia School (Medical & Dental),-119.2886683,36.3327506,1,"401 E School Ave, Visalia, CA 93291, USA",(877) 960-3426,,
Vista Community Clinic,-117.2754366,33.1913605,1,"134 Grapevine Rd, Vista, CA 92083, USA",(760) 631-5000,,
Salud Para La Gente,-121.753841,36.911946,1,"204 E Beach St, Watsonville, CA 95076, USA",(831) 728-0222,,
East Valley Community Health Center,-117.9249457,34.0673027,0,"420 S Glendora Ave, West Covina, CA 91790, USA",(626) 919-5724,,
Winters Healthcare Foundation,-121.9734289,38.5199374,0,"310 Main St, Winters, CA 95694, USA",(530) 795-5200,,
"Administrative Services: Valley-Wide Health Systems, Inc.",-105.890388,37.474428,1,"128 Market St, Alamosa, CO 81101, USA",(833) 350-1113,,
Regents-The University-Colorado,-104.8377105,39.7451972,0,"13001 E 17th Pl ste f-428, Aurora, CO 80045, USA",(303) 724-0258,,
Peak Vista Community Health Centers at Academy,-104.756287,38.8783252,0,"3207 N Academy Blvd Suite 3100 & 3500, Colorado Springs, CO 80917, USA",(719) 632-5700,,
Colorado Coalition for the Homeless,-104.9877763,39.7515866,1,"2111 Champa St, Denver, CO 80205, USA",(303) 293-2217,,
Denver Health,-104.9913193,39.7279895,1,"777 Bannock St, Denver, CO 80204, USA",(303) 436-6000,,
Clinica Tepeyac,-104.9867107,39.7886192,0,"5075 Lincoln St, Denver, CO 80216, USA",(303) 458-5302,,
Metro Community Provider Network,-104.9927257,39.6527333,1,"3515 S Delaware St, Englewood, CO 80110, USA",(303) 360-6276,,
Sunrise Community Health,-104.6926325,40.388399,0,"2930 11th Ave, Evans, CO 80620, USA",(970) 352-0048,,
Salud Family Health Centers Administration Building,-104.8058285,40.0776228,1,"203 S Rollie Ave, Fort Lupton, CO 80621, USA",(303) 892-6401,,
Mountain Family Health Centers - Glenwood Springs Integrated Health Center,-107.3232711,39.5323651,0,"1905 Blake Ave, Glenwood Springs, CO 81601, USA",(970) 945-2840,,
Clinica Family Health,-105.0910303,39.9825977,0,"1735 S Public Rd, Lafayette, CO 80026, USA",(303) 650-4460,,
Optimus health care,-73.2103596,41.2116978,0,"3715 Main St, Bridgeport, CT 06606, USA",(203) 696-3260,,
Southwest Community Health Center,-73.2045149,41.17437,0,"1046 Fairfield Ave, Bridgeport, CT 06605, USA",(203) 330-6000,,
Connecticut Institute For Communities (CIFC) - Central Business Office,-73.4499032,41.3919011,0,"120 Main St 4th floor, Danbury, CT 06810, USA",(203) 743-9760,,
First Choice Health Centers,-72.6449966,41.7684555,1,"809 Main St, East Hartford, CT 06108, USA",(860) 528-1359,,
Family Centers Health Care,-73.6185989,41.0250244,0,"111 Wilbur Peck Ct, Greenwich, CT 06830, USA",(203) 717-1760,,
Charter Oak Family Health Center,-72.6855562,41.7593292,1,"21 Grand St, Hartford, CT 06106, USA",(860) 550-7500,,
Community Health Services,-72.6847573,41.7779836,0,"500 Albany Ave, Hartford, CT 06120, USA",(860) 249-9625,,
"Community Health Center, Inc",-72.6528474,41.565097,1,"675 Main St, Middletown, CT 06457, USA",(860) 347-6971,,
Fair Haven Community Health Care,-72.8896999,41.3092698,1,"50 Grand Ave, New Haven, CT 06513, USA",(203) 777-7411,,
Norwalk Community Health Center (NCHC),-73.4281171,41.105916,0,"120 Connecticut Ave, Norwalk, CT 06854, USA",(203) 851-1000,,
La Red Health Center,-75.4048154,38.6996842,1,"21444 Carmean Way, Georgetown, DE 19947, USA",(302) 855-1233,,
Henrietta Johnson Medical Center: Thompson Nadine MD,-75.5437994,39.7275201,0,"601 New Castle Ave, Wilmington, DE 19801, USA",(302) 655-6187,,
Westside Family Healthcare,-75.5344517,39.7458426,0,"908 16th St B, Wilmington, DE 19802, USA",(302) 575-1414,,
Bread For the City,-76.9811,38.866205,0,"1640 Good Hope Rd SE, Washington, DC 20020, USA",(202) 265-2400,,
Community of Hope,-77.0087077,38.8311595,0,"4 Atlantic St SW, Washington, DC 20032, USA",(202) 407-7747,,
Elaine Ellis Center of Health,-76.9339373,38.9117325,0,"1627 Kenilworth Avenue Northeast, Washington, DC 20019, USA",(202) 803-2340,,
Family and Medical Counseling Service Inc,-76.9898272,38.8658935,0,"2041 Martin Luther King Jr Ave SE, Washington, DC 20020, USA",(202) 889-7900,,
La Clinica Del Pueblo,-77.0351636,38.9258997,0,"2831 15th St NW, Washington, DC 20009, USA",(202) 462-4788,,
Mary's Center,-77.0398043,38.9209842,1,"2333 Ontario Rd NW, Washington, DC 20009, USA",(202) 483-8196,,
Unity Health Care Inc,-76.9429305,38.9006279,1,"4130 Hunt Pl NE, Washington, DC 20019, USA",(202) 388-8160,,
Chuuk State Project Management Office,151.8454065,7.4528776,0,"Weno, Chuuk, Federated States of Micronesia",330 3069,,
Pohnpei Community Health Center,158.2133147,6.9642614,0,"Kolonia, Pohnpei 96941, Federated States of Micronesia",320 2438,,
Yap Memorial Hospital,138.1253743,9.523426,0,"Unnamed Road,, Colonia, Yap, Federated States of Micronesia",350 2115,,
Genesis Community Health: Boynton Beach Medical,-80.058251,26.5214308,0,"709 South S Federal Hwy Suite 3, Boynton Beach, FL 33435, USA",(561) 735-6553,,
Clearwater,-82.8001026,27.9658533,0,"Clearwater, FL, USA",,,
Community Health of South Florida Inc: Doris Ison Health Center,-80.3577898,25.5656019,1,"10300 SW 216th St, Miami, FL 33190, USA",(305) 253-5100,,
Premier Community HealthCare Group,-82.1878504,28.3626964,1,"37944 Church Ave, Dade City, FL 33525, USA",(352) 518-2000,,
Walton County Public Health Department,-86.1133325,30.7260483,0,"362 FL-83, Defuniak Springs, FL 32433, USA",(850) 892-8015,,
Family Health Centers Of Southwest Fl,-81.8709081,26.6360087,1,"2256 Heitman St, Fort Myers, FL 33901, USA",(239) 278-3600,,
North Broward Hospital District,-80.1395363,26.101307,0,"303 SE 17th St, Fort Lauderdale, FL 33316, USA",(954) 759-7400,,
Broward Community and Family Health Centers,-80.194399,26.009986,0,"5010-5012 Hollywood Blvd, Hollywood, FL 33021, USA",(954) 967-0028,,
Healthcare Network | Dental Care,-81.4320831,26.4428234,1,"1454 Madison Ave W, Immokalee, FL 34142, USA",(239) 658-3000,,
"Agape Community Health Center, Inc.",-81.6973579,30.3290917,0,"120 King St, Jacksonville, FL 32204, USA",(904) 760-4904,,
Sulzbacher Center,-81.6497038,30.3268021,0,"611 E Adams St, Jacksonville, FL 32202, USA",(904) 359-0457,,
Banyan Health Systems,-80.2582562,25.771548,0,"3850 W Flagler St, Miami, FL 33134, USA",(305) 774-3300,,
Borinquen Health Care Center,-80.3667177,25.7607384,1,"10528 SW 8th St, Miami, FL 33174, USA",(305) 552-1201,,
Camillus Health Concern,-80.2004801,25.7785411,0,"336 NW 5th St, Miami, FL 33128, USA",(305) 577-4840,,
Care Resource Community Health Centers,-80.1888706,25.8126663,0,"3801 Biscayne Blvd 2nd floor, Miami, FL 33137, USA",(305) 576-1234,,
Empower U Inc,-80.2438165,25.8482694,0,"7900 NW 27th Ave Suite E12, Miami, FL 33147, USA",(786) 318-2337,,
"Jessie Trice Community Health Center, Inc",-80.2322423,25.8239742,1,"5361 NW 22nd Ave, Miami, FL 33142, USA",(305) 637-6400,,
Miami Beach Community Health Center,-80.1320884,25.8546303,1,"1221 71st St, Miami Beach, FL 33141, USA",(305) 538-8835,,
"Center for Family and Child Enrichment, Inc. (CFCE)",-80.2310256,25.9275741,0,"1825 NW 167th St, Miami Gardens, FL 33056, USA",(305) 624-7450,,
Heart of Florida Health Center Central,-82.1373973,29.1787634,0,"1025 SW 1st Ave, Ocala, FL 34471, USA",(352) 732-6599,,
Health Care Center for the Homeless,-81.3978235,28.5453723,0,"232 Orange Blossom Trail, Orlando, FL 32805, USA",(407) 428-5751,,
Rural Health Care Inc,-81.6551541,29.6414198,0,"2503 President St, Palatka, FL 32177, USA",,,
MCR Health,-82.5726252,27.5178734,1,"700 8th Ave W #101, Palmetto, FL 34221, USA",(941) 776-4000,,
PanCare Health,-85.6553364,30.1680964,0,"403 E 11th St, Panama City, FL 32401, USA",(850) 767-3350,,
Pierson Medical Services,-81.4593398,29.2446036,0,"216 N Frederick St, Pierson, FL 32180, USA",(386) 749-2883,,
Ruskin Health Center - Suncoast Community Health Centers,-82.3948005,27.7065186,1,"2814 14th Ave SE, Ruskin, FL 33570, USA",(813) 653-6100,,
"Community Health Centers of Pinellas, Inc.",-82.662824,27.7569067,1,"1344 22nd St S, St. Petersburg, FL 33712, USA",(727) 824-8181,,
Central Florida Family Health: Oostwouder Peter MD,-81.2136626,28.7923528,0,"2400 State Rte 415, Sanford, FL 32771, USA",(407) 322-8645,,
Langley Health Services,-82.0675312,28.7362065,0,"1389 US-301, Sumterville, FL 33585, USA",(352) 793-5900,,
Bond Community Health Center Inc.,-84.278648,30.4253402,1,"1720 S Gadsden St, Tallahassee, FL 32301, USA",(850) 576-4073,,
Neighborhood Medical Center,-84.2968116,30.4130947,0,"872 W Orange Ave, Tallahassee, FL 32310, USA",(850) 300-7262,,
North Florida Medical Center,-84.2440242,30.4921504,0,"2804 Remington Green Cir, Tallahassee, FL 32308, USA",(850) 385-4494,,
Tampa Family Health Centers,-82.5058309,28.0187985,1,"7814 N Dale Mabry Hwy, Tampa, FL 33614, USA",(813) 405-3939,,
Palms Medical Group,-82.8188522,29.6074539,0,"911 S Main St, Trenton, FL 32693, USA",(352) 463-2374,,
"FoundCare, Inc.",-80.087844,26.6417899,0,"2330 S Congress Ave, West Palm Beach, FL 33406, USA",(561) 432-5849,,
Florida Community Health Center,-80.0918595,26.7630792,1,"5827 Corporate Way, West Palm Beach, FL 33407, USA",(561) 844-9443,,
Health Care District of Palm Beach County Main Office,-80.051135,26.726456,0,"1515 N Flagler Dr #101, West Palm Beach, FL 33401, USA",(561) 659-1270,,
Central Florida Health Care - Winter Haven,-81.7264073,28.0375838,0,"1514 1st St N, Winter Haven, FL 33881, USA",(866) 234-8534,,
Albany Area Primary Health Care,-84.218789,31.5916747,0,"204 N Westover Blvd, Albany, GA 31707, USA",(229) 888-6559,,
Athens Neighborhood Health Center - East,-83.3552597,33.9588916,0,"402 McKinley Dr, Athens, GA 30601, USA",(706) 543-1145,,
Center for Pan Asian Community Services,-84.2866626,33.89148,0,"3510 Shallowford Rd, Atlanta, GA 30341, USA",(770) 936-0969,,
Georgia Department of Community Health,-84.4281838,33.7737531,0,"1249 Donald Lee Hollowell Pkwy NW, Atlanta, GA 30318, USA",(404) 656-4507,,
"The Family Health Centers of Georgia, Inc.",-84.416374,33.736796,0,"868 York Ave SW, Atlanta, GA 30310, USA",(404) 752-1400,,
HEALing Community Center at Neighborhood Union,-84.410418,33.759625,0,"186 Sunset Ave NW, Atlanta, GA 30314, USA",(404) 477-1184,,
"Whitefoord, Inc.",-84.343337,33.7523182,0,"1353 George W Brumley Way SE, Atlanta, GA 30317, USA",(404) 523-2500,,
Palmetto Health Dental Center,-84.3489467,33.7845409,0,"10 Richland Medical Park Cola, Atlanta, GA 30306, USA",(404) 434-6567,,
Mercy Care,-84.3744307,33.7509488,1,"424 Decatur St SE, Atlanta, GA 30312, USA",(678) 843-8600,,
Southside Medical Center,-84.3918858,33.7270457,0,"1046 Ridge Ave SW, Atlanta, GA 30315, USA",(404) 688-1350,,
Neighborhood Improvement project inc,-82.0511219,33.429071,0,"2467 Golden Camp Rd, Augusta, GA 30906, USA",(706) 790-4440,,
"Primary Care of Southwest GA, Inc.",-84.9384075,31.3790776,0,"360 College St, Blakely, GA 39823, USA",(229) 723-2660,,
"Coastal Community Health Services, Inc",-81.4876793,31.2195073,0,"106 Shoppers Way, Brunswick, GA 31525, USA",(912) 275-8028,,
Valley Healthcare System,-84.9373089,32.4240963,0,"1600 Fort Benning Rd, Columbus, GA 31903, USA",(706) 322-9599,,
Primary Healthcare Centers,-85.4992133,34.8874974,0,"13570 N Main St, Trenton, GA 30752, USA",(706) 956-2665,,
Diversity Health Center,-81.7486945,31.7149786,0,"Ludowici, GA 31316, USA",(912) 545-9398,,
First Choice Primary Care,-83.6296189,32.8404343,0,"770 Walnut St, Macon, GA 31201, USA",(478) 787-4266,,
Good Samaritan Health Center Of Cobb,-84.556376,33.913915,0,"1605 Roberta Dr, Marietta, GA 30008, USA",(770) 419-3120,,
Four Corners Primary Care Centr,-84.1814629,33.9187471,0,"5300 Oakbrook Pkwy #130, Norcross, GA 30093, USA",(770) 806-2928,,
"CareConnect Family Practice and Pediatrics, Richland",-84.6606629,32.0861377,0,"510 Alston St, Richland, GA 31825, USA",(229) 887-3324,,
Curtis V. Cooper Primary Health Care Inc,-81.08459,32.076217,0,"106 E Broad St, Savannah, GA 31401, USA",(912) 527-1000,,
J.C. Lewis Primary Health Care Center,-81.1190658,32.000769,0,"5 Mall, Annex, Savannah, GA 31406, USA",(912) 495-8887,,
MedCura Health formerly Oakhurst Medical Center,-84.212672,33.7994911,0,"5582 Memorial Dr, Stone Mountain, GA 30083, USA",(404) 298-8998,,
"Community Healthcare Systems, Inc.",-82.7300557,32.7293952,0,"2251 W Elm St, Wrightsville, GA 31096, USA",(478) 864-2600,,
Department of Administration,144.7508061,13.473614,0,"212, Hagåtña, 96910, Guam",(671) 475-1101,,
"Bay Clinic, Inc. - Hilo Family Health Center",-155.0797594,19.7103035,0,"1178 Kinoole St BLDG B, Hilo, HI 96720, USA",(808) 333-3600,,
Hamakua Health Center,-155.4700508,20.0758589,0,"45-549 Plumeria St, Honokaa, HI 96727, USA",(808) 775-7204,,
Kalihi-Palama Health Center,-157.8682726,21.3228144,0,"915 N King St, Honolulu, HI 96817, USA",(808) 848-1438,,
Kokua Kalihi Valley,-157.8745813,21.3406929,0,"2239 N School St, Honolulu, HI 96819, USA",(808) 791-9400,,
Waikiki Health Center,-157.8205107,21.275595,0,"277 ʻŌhua Ave, Honolulu, HI 96815, USA",(808) 922-4787,,
Ko`olauloa Health Center,-157.9535699,21.6760208,0,"56-119 Pualalea St, Kahuku, HI 96731, USA",(808) 293-9231,,
Molokai Community Health Center,-157.0192094,21.0860191,0,"30 Oki Pl, Kaunakakai, HI 96748, USA",(808) 553-5038,,
Lāna'i Community Health Center,-156.9211427,20.8265134,0,"333 6th St, Lanai City, HI 96763, USA",(808) 565-6919,,
Ho'ola Lahui Hawaii,-159.3706572,21.975234,0,"4491 Rice St, Lihue, HI 96766, USA",,,
Waianae Coast Comprehensive Health Center,-158.1798276,21.4299537,0,"86-260 Farrington Hwy, Waianae, HI 96792, USA",(808) 697-3300,,
Community Clinic of Maui,-156.4994157,20.8886664,0,"1881 Nani St, Wailuku, HI 96793, USA",(808) 871-7772,,
Family Medicine Residency of Idaho - Raymond Clinic,-116.264795,43.6114669,0,"777 N Raymond St, Boise, ID 83704, USA",(208) 514-2500,,
Heritage Health,-116.8010062,47.6947904,0,"1090 W Park Pl, Coeur d'Alene, ID 83814, USA",(208) 620-5250,,
Shoshone-Bannock Tribes,-112.4336581,43.0269859,0,"306 Pima Dr, Fort Hall, ID 83203, USA",(208) 478-3700,,
Glenns Ferry Health Center,-115.3055128,42.9540991,0,"486 W 1st Ave, Glenns Ferry, ID 83623, USA",(208) 366-7416,,
Terry Reilly Health Services - 16th St. Clinic,-116.5521226,43.5792411,1,"223 16th Ave N, Nampa, ID 83687, USA",(208) 467-7654,,
Valley Family Health Care,-116.9249811,44.0580758,0,"1441 NE 10th Ave, Payette, ID 83661, USA",(208) 642-9376,,
Rural Health Inc,-89.2468527,37.4634999,0,"513 N Main St, Anna, IL 62906, USA",(618) 833-4471,,
VNA Health Care,-88.3297293,41.7659245,1,"400 N Highland Ave, Aurora, IL 60506, USA",(630) 892-4355,,
ACCESS Rogers Park Family Health Center,-87.6702578,42.0191925,0,"1555 W Howard St, Chicago, IL 60626, USA",(773) 764-7146,,
Carlinville,-89.8817662,39.2797699,0,"Carlinville, IL 62626, USA",,,
Shawnee Health Service Administration Offices,-89.0765161,37.7514721,0,"109 California St, Carterville, IL 62918, USA",(618) 985-8221,,
Access Community Health Network - Corporate Office,-87.643223,41.8869426,1,"600 W Fulton St, Chicago, IL 60661, USA",(312) 526-2200,,
"ALIVIO MEDICAL CENTER, INC.",-87.6645576,41.8529688,0,"1450 W Cermak Rd, Chicago, IL 60608, USA",(773) 254-1400,,
AHS Family Health Center,-87.6905267,41.9907505,0,"2424 W Peterson Ave, Chicago, IL 60659, USA",(800) 597-5077,,
Erie Humboldt Park Health Center,-87.69667,41.9104556,1,"2750 W North Ave, Chicago, IL 60647, USA",(312) 666-3494,,
Esperanza Health Centers California,-87.6953253,41.8546526,1,"2001 S California Ave #100, Chicago, IL 60608, USA",(773) 584-6200,,
Friend Family Health Center Inc,-87.7227607,41.7901668,0,"5635 S Pulaski Rd, Chicago, IL 60629, USA",(773) 585-3900,,
Heartland Alliance Health Englewood Health Center,-87.644904,41.7936606,1,"5501 S Halsted St, Chicago, IL 60621, USA",(773) 275-2586,,
Heartland Health Center - Touhy,-87.6864137,42.0124201,0,"2200 W Touhy Ave, Chicago, IL 60645, USA",(773) 751-1875,,
Howard Brown Health Clark,-87.6714074,42.0000343,0,"6500 N Clark St, Chicago, IL 60626, USA",(773) 388-1600,,
Food Distribution Center - Iman: Inner-city Muslim Action Netwrok,-87.6927863,41.7792569,0,"2744 W 63rd St, Chicago, IL 60629, USA",(773) 434-4626,,
Lawndale Christian Health Center,-87.7218767,41.8525899,0,"3860 Ogden Ave, Chicago, IL 60623, USA",(872) 588-3000,,
North Health Service Corporation,-87.6422731,41.9052536,0,"1276 N Clybourn Ave, Chicago, IL 60610, USA",(312) 337-1073,,
Primecare Community Health Inc: Friedman Michael H MD,-87.6863618,41.9075732,0,"1431 N Western Ave, Chicago, IL 60622, USA",(312) 633-5841,,
"TCA Health, Inc.",-87.596743,41.658754,0,"1029 E 130th St, Chicago, IL 60628, USA",(773) 995-6300,,
University of Illinois at Chicago,-87.6496218,41.8696074,0,"1200 W Harrison St, Chicago, IL 60607, USA",(312) 996-7000,,
Community Health Improvemnt Center,-88.9570479,39.8749248,0,"320 East Central Avenue, Decatur, IL 62521, USA",(217) 877-9117,,
SIHF Healthcare - East St. Louis - State Street,-90.1325762,38.6187985,1,"2001 State St, East St Louis, IL 62205, USA",(618) 271-9191,,
Greater Elgin Family Care Center - Summit Health Center,-88.2778173,42.0460785,1,"373 Summit St Ste 100, Elgin, IL 60120, USA",(847) 608-1344,,
Aunt Martha's,-87.7004965,41.5267094,0,"19990 Governors Hwy, Olympia Fields, IL 60461, USA",(708) 747-7100,,
Crusader Community Health,-89.1083121,42.2751501,0,"1200 W State St, Rockford, IL 61102, USA",(815) 490-1600,,
SIU School of Medicine,-89.6575947,39.8100982,0,"801 N Rutledge St, Springfield, IL 62702, USA",(217) 545-8000,,
Lake County,-87.8271534,42.3689363,0,"Lake County, IL, USA",,,
Valley Professionals Community Health Center,-87.3990775,39.653504,0,"777 S Main St #100, Clinton, IN 47842, USA",(765) 828-1003,,
Heart City Health,-85.9458344,41.6897607,0,"236 Simpson Ave, Elkhart, IN 46516, USA",(574) 293-0052,,
Community HealthNet Health Centers,-87.3504715,41.6017048,0,"1021 W 5th Ave, Gary, IN 46402, USA",(219) 880-1190,,
Maple City Health Care Center,-85.8323934,41.5932252,0,"213 Middlebury St, Goshen, IN 46528, USA",(574) 534-3300,,
"Indiana Health Centers, Inc.",-86.0545639,39.9026018,0,"8003 Castleway Dr, Indianapolis, IN 46250, USA",(317) 576-1335,,
Raphael Health Center,-86.1506215,39.8174546,0,"401 E 34th St, Indianapolis, IN 46205, USA",(317) 926-1507,,
Shalom Health Care Center,-86.2296634,39.8175537,0,"3400 Lafayette Rd # 200, Indianapolis, IN 46222, USA",(317) 291-7422,,
"The Health Cares Exchange Initiative, Inc.",-87.6703938,42.0118035,1,"7100 N Ashland Ave, Chicago, IL 60626, USA",(773) 509-6402,,
Regional Mental Health Center,-87.3202372,41.4643844,0,"1441 E 84th Pl, Merrillville, IN 46410, USA",(219) 769-4005,,
Open Door Health Services,-85.3822754,40.1913772,0,"333 S Madison St, Muncie, IN 47305, USA",(765) 286-7000,,
Aspire Indiana Health,-85.9936277,40.0485828,0,"17840 Cumberland Rd, Noblesville, IN 46060, USA",(317) 773-6864,,
Healthlinc Inc: Ames Jay T MD,-87.0375194,41.47708,1,"1001 Sturdy Rd, Valparaiso, IN 46383, USA",(219) 462-7173,,
Porter-Starke Services,-87.053739,41.4894677,0,"601 Wall St, Valparaiso, IN 46383, USA",(219) 531-3500,,
Community Health Care,-90.5806669,41.5211039,1,"500 W River Dr, Davenport, IA 52801, USA",(563) 336-3041,,
"Proteus, Inc.",-93.6334926,41.5919332,0,"1221 Center St, Des Moines, IA 50309, USA",(515) 271-5306,,
Primary Health Care Inc,-93.633171,41.6002081,0,"1200 University Ave, Des Moines, IA 50314, USA",(515) 248-1447,,
Mexican American Ministries,-100.869039,37.9705,0,"310 E Walnut St # L05, Garden City, KS 67846, USA",(620) 260-9560,,
Vibrant Health Wyandotte: Central,-94.6392286,39.1038137,0,"21 N 12th St Ste 300, Kansas City, KS 66102, USA",(913) 342-2552,,
Community Health Center of Southeast Kansas,-94.6963317,37.4373002,1,"3011 N Michigan St, Pittsburg, KS 66762, USA",(620) 231-9873,,
GraceMed Evergreen Family Clinic,-97.3499536,37.7314467,1,"1125 W 26th St N, Wichita, KS 67204, USA",(316) 866-2000,,
HealthCore Clinic Inc,-97.3051435,37.7224141,0,"2707 E 21st St N, Wichita, KS 67214, USA",,,
Hunter Health Brookside Clinic,-97.290189,37.6448153,0,"2750 S Roosevelt St, Wichita, KS 67210, USA",(316) 262-2415,,
A+ Family Healthcare,-86.2649078,37.1915206,0,"210 S Main St, Brownsville, KY 42210, USA",(270) 975-4050,,
Cumberland Family Medical Center,-85.3689784,36.7852094,0,"360 Keen St, Burkesville, KY 42717, USA",(270) 864-2889,,
HealthFirst Bluegrass - Southland Drive Clinic,-84.5290222,38.0206451,0,"496 Southland Dr, Lexington, KY 40503, USA",(859) 288-2425,,
University of Kentucky,-84.5039697,38.0306511,0,"Lexington, KY 40506, USA",(859) 257-9000,,
Big Sandy Health Care Inc,-82.7714647,37.6940231,0,"1709 KY-321, Prestonsburg, KY 41653, USA",(606) 886-8546,,
Mountain Comprehensive Care Center,-82.7748674,37.6668282,0,"104 S Front St, Prestonsburg, KY 41653, USA",(606) 886-8572,,
Mountain Comprehensive Health Corporation: Wellness Center,-82.8239414,37.1174473,1,"77 E Main St, Whitesburg, KY 41858, USA",(606) 632-3882,,
Rapides Primary Health Care Center,-92.4263298,31.28596,0,"1217 Willow Glen River Rd, Alexandria, LA 71302, USA",(318) 487-4400,,
InclusivCare,-90.2246018,29.9119317,0,"3932 US-90, Avondale, LA 70094, USA",(504) 436-2223,,
"Morehouse Community Medical Centers, Inc.",-91.9185028,32.7737388,0,"518 Durham St, Bastrop, LA 71220, USA",(318) 283-8887,,
"Baton Rouge Primary Care Collaborative, Inc.",-91.1729864,30.5359433,0,"2013 Central Rd, Baton Rouge, LA 70807, USA",(225) 774-1120,,
Capitol City Family Health Center,-91.1491139,30.4617557,0,"4000 Gus Young Ave, Baton Rouge, LA 70802, USA",(225) 388-5861,,
HAART Clinic,-91.1503633,30.4487165,0,"3849 North Blvd, Baton Rouge, LA 70806, USA",(225) 655-6422,,
Delhi,-91.4931736,32.4576421,0,"Delhi, LA, USA",,,
St Helena Communuty Health Center,-90.6660021,30.8302899,0,"490 Sitman, Greensburg, LA 70441, USA",(225) 306-2070,,
Innis Community Health Center,-91.6799962,30.8766211,0,"6450 LA-1, Batchelor, LA 70715, USA",(225) 492-3775,,
SWLA Center for Health Services,-93.1917999,30.2418583,0,"2000 Opelousas St, Lake Charles, LA 70601, USA",(337) 439-9983,,
St. Charles Community Health Center,-90.3695724,29.9231539,0,"843 Milling Ave, Luling, LA 70070, USA",(985) 785-5800,,
Casse Community Health Institute,-93.7060222,32.0376813,0,"907 Polk St, Mansfield, LA 71052, USA",(318) 688-3350,,
Priority Health Care,-90.0972125,29.8889766,0,"4700 Wichers Dr #304, Marrero, LA 70072, USA",(504) 309-3262,,
Primary Health Services Center,-92.0876198,32.5198842,0,"2913 Desiard St, Monroe, LA 71201, USA",(318) 388-1250,,
"Iberia Comprehensive Community Health Center, Inc.",-91.810504,29.9883829,0,"806 Jefferson Terrace, New Iberia, LA 70560, USA",(337) 365-4945,,
Baptist Community Health Services- Lower 9th Ward- Family Practice,-90.0146467,29.9669161,0,"1616 Caffin Ave, New Orleans, LA 70117, USA",(504) 533-4999,,
"EXCELth, Incorporated",-90.0785,29.952563,0,"1515 Poydras St # 1070, New Orleans, LA 70112, USA",(504) 524-1210,,
DePaul Community Health Center - Carrollton,-90.1138815,29.9617633,1,"3201 S Carrollton Ave, New Orleans, LA 70118, USA",(504) 207-3060,,
MQVN Community,-89.912218,30.0370175,0,"4626 Alcee Fortier Blvd # E, New Orleans, LA 70129, USA",(504) 255-9170,,
New Orleans,-90.0715323,29.9510658,0,"New Orleans, LA, USA",,,
St. Thomas Community Health Center- Donald T. Erwin Center,-90.0744084,29.9309647,1,"1936 Magazine St, New Orleans, LA 70130, USA",(504) 529-5558,,
Southwest Louisiana Primary Health Care Center,-92.0729902,30.5660639,0,"8762 LA-182, Opelousas, LA 70570, USA",(337) 942-2005,,
Plaquemines Medical Center,-89.7123508,29.4947274,0,"27136 LA-23, Port Sulphur, LA 70083, USA",(504) 564-3344,,
Saint Gabriel Health Clinic,-91.1271696,30.3541636,0,"1707 Gardere Ln, Baton Rouge, LA 70820, USA",(225) 642-9676,,
David Raines Community Health Centers,-93.8281499,32.5355378,0,"1625 David Raines Rd, Shreveport, LA 71107, USA",(318) 425-2252,,
Winn Community Health Center,-92.6446081,31.9247003,0,"431 W Lafayette St, Winnfield, LA 71483, USA",(318) 648-0375,,
PENOBSCOT Community Health Center,-68.8088913,44.8158431,1,"1012 Union St, Bangor, ME 04401, USA",(207) 404-8100,,
Fish River Rural Health,-68.5947036,47.0364112,0,"10 Carter St, Eagle Lake, ME 04739, USA",(207) 444-5973,,
Health Access Network,-68.5222778,45.3605396,0,"175 W Broadway, Lincoln, ME 04457, USA",(207) 794-6700,,
HealthReach Community Health Centers,-69.6295021,44.5461926,1,"10 Water St, Waterville, ME 04901, USA",(207) 872-5610,,
Baltimore Medical System Inc,-76.5685821,39.3131386,0,"3501 Sinclair Ln, Baltimore, MD 21213, USA",(410) 732-8800,,
Chase Brexton Health Services,-76.6155438,39.3024911,0,"1111 N Charles St, Baltimore, MD 21201, USA",(410) 837-2050,,
Health Care for the Homeless,-76.6096183,39.2938249,1,"421 Fallsway, Baltimore, MD 21202, USA",(410) 837-5533,,
Park West Health System,-76.6768698,39.3481245,0,"3319 W Belvedere Ave, Baltimore, MD 21215, USA",(410) 542-7800,,
Total Health Care - Mondawmin Mall Health Center,-76.6539348,39.3173802,0,"2401 Liberty Heights Ave #111-113, Baltimore, MD 21215, USA",(410) 383-8300,,
Mobile Medical Care Inc,-77.1126738,39.0082446,0,"9309 Old Georgetown Rd, Bethesda, MD 20814, USA",(301) 493-2400,,
Greater Baden Medical Services,-76.87889,38.6707899,0,"7450 Albert Rd, Brandywine, MD 20613, USA",(301) 888-2233,,
Choptank Community Health System : Medical,-75.827782,38.874606,0,"808 S 5th Ave, Denton, MD 21629, USA",(410) 479-2650,,
Frederick,-77.4105409,39.4142688,0,"Frederick, MD, USA",,,
Family Healthcare of Hagerstown,-77.7110756,39.636134,0,"201 S Cleveland Ave, Hagerstown, MD 21740, USA",(301) 745-3777,,
Community Clinic Inc,-77.0278025,38.9935928,1,"8210 Dixon Ave # C, Silver Spring, MD 20910, USA",(301) 585-1250,,
Boston Health Care for the Homeless Program,-71.0725726,42.3337186,1,"780 Albany St, Boston, MA 02118, USA",(857) 654-1000,,
East Boston Neighborhood Health Center,-71.0395027,42.3696944,1,"20 Maverick Square, Boston, MA 02128, USA",(617) 569-5800,,
Fenway Health,-71.0989642,42.3440524,1,"1340 Boylston St, Boston, MA 02215, USA",(617) 267-0900,,
Mattapan Community Health Center,-71.094151,42.2698366,0,"1575 Blue Hill Avenue, Boston, MA 02126, USA",(617) 296-0061,,
South Boston Community Health Center,-71.0482208,42.336849,1,"409 W Broadway, Boston, MA 02127, USA",(617) 269-7500,,
South Cove Community Health Center,-71.064563,42.3480041,1,"885 Washington St, Boston, MA 02111, USA",(617) 482-7555,,
Charles River Community Health,-71.1439344,42.3623832,1,"Joseph M. Smith Building, 495 Western Ave, Brighton, MA 02135, USA",(617) 783-0500,,
Brockton Neighborhood Health Center,-71.0202336,42.0842589,1,"63 Main St, Brockton, MA 02301, USA",(508) 559-6699,,
DotHouse Health,-71.059316,42.304408,0,"1353 Dorchester Ave, Dorchester, MA 02122, USA",(617) 288-3230,,
Upham's Corner Health Center,-71.0686823,42.3119206,0,"415 Columbia Rd, Boston, MA 02125, USA",(617) 287-8000,,
Codman Square Health Center,-71.0720453,42.2896042,1,"637 Washington St, Boston, MA 02124, USA",(617) 825-9660,,
Community Health Programs Inc,-73.3426908,42.2193394,0,"444 Stockbridge Rd, Great Barrington, MA 01230, USA",(413) 528-8580,,
Duffy Health Center,-70.2742579,41.6562888,0,"94 Main St, Hyannis, MA 02601, USA",(508) 771-9599,,
Greater Lawrence Family Health Center,-71.1519479,42.7118228,1,"34 Haverhill St, Lawrence, MA 01840, USA",(978) 686-0090,,
Lowell Community Health Center,-71.311467,42.642182,0,"161 Jackson St, Lowell, MA 01854, USA",(978) 937-9700,,
Lynn Community Health Center,-70.9436238,42.4650429,1,"269 Union St, Lynn, MA 01901, USA",(781) 581-3900,,
Community Health Center of Cape Cod,-70.490942,41.6074636,0,"107 Commercial St, Mashpee, MA 02649, USA",(508) 477-7090,,
Harbor Health Services Inc,-71.0748674,42.2757583,0,"1135 Morton St, Mattapan, MA 02126, USA",(617) 533-2300,,
"The Greater New Bedford Community Health Center, Inc",-70.9259855,41.6361816,0,"874 Purchase St, New Bedford, MA 02740, USA",(508) 992-6553,,
Dimock Health Center,-71.0971809,42.3202306,0,"45 Dimock St, Boston, MA 02119, USA",(617) 442-8800,,
Caring Health Center,-72.5848401,42.0996944,0,"1049 Main St, Springfield, MA 01103, USA",(413) 739-1100,,
Outer Cape Health Services - Wellfleet Health Center,-70.030876,41.946095,0,"3130 US-6, Wellfleet, MA 02667, USA",(508) 349-3131,,
Edward M. Kennedy Community Health Center,-71.7642001,42.2981818,1,"650 Lincoln St, Worcester, MA 01605, USA",(508) 854-2122,,
Packard Health Main,-83.6965573,42.2445334,0,"3174 Packard St, Ann Arbor, MI 48108, USA",(734) 971-1073,,
InterCare Community Health Network,-86.1133345,42.3128718,1,"308 Charles St, Bangor, MI 49013, USA",(855) 869-6900,,
Bay Mills,-84.5839401,46.4372433,0,"Bay Mills, MI 49715, USA",,,
Family Medical Center,-83.3793107,42.0563183,1,"130 Medical Center Dr, Carleton, MI 48117, USA",(734) 654-2169,,
Cassopolis Family Clinic Network,-86.0153024,41.91964,0,"261 M-62, Cassopolis, MI 49031, USA",(269) 445-3874,,
CHASS Center,-83.096796,42.3090658,1,"5635 W Fort St, Detroit, MI 48209, USA",(313) 849-3920,,
Detroit Central City Community Mental Health,-83.0569411,42.3453494,0,"10 Peterboro St, Detroit, MI 48201, USA",(313) 831-3160,,
Detroit Community Health Connection,-82.9481766,42.3715577,0,"13901 E Jefferson Ave, Detroit, MI 48215, USA",(313) 822-0900,,
Advantage Health Centers,-83.1985201,42.416246,0,"15400 W McNichols Rd, Detroit, MI 48235, USA",(313) 416-6262,,
The Wellness Plan Medical Centers - Gateway Medical Center,-83.080961,42.3668128,0,"2888 W Grand Blvd, Detroit, MI 48202, USA",(313) 875-4200,,
Genesee Health System,-83.7006864,43.0213741,0,"420 W 5th Ave, Flint, MI 48503, USA",(810) 257-3705,,
Hamilton Community Health Network Main Clinic,-83.6923842,43.0420316,0,"2900 Saginaw St, Flint, MI 48505, USA",(810) 406-4246,,
Cherry Street Health Services: Peterson Joanne H MD,-85.6546215,42.9591174,1,"550 Cherry St SE, Grand Rapids, MI 49503, USA",(616) 235-7272,,
Upper Great Lakes Gwinn Family Health Center,-87.4221267,46.2755661,0,"135 M-35, Gwinn, MI 49841, USA",(906) 346-9275,,
"Thunder Bay Community Health Service, Inc.",-83.9017181,45.070034,1,"15774 State St, Hillman, MI 49746, USA",(989) 742-4583,,
Western Wayne Family Health Centers,-83.3116373,42.291375,0,"2700 Hamlin Blvd, Inkster, MI 48141, USA",(313) 561-5100,,
Family Health Center - Paterson,-85.5846143,42.3029365,0,"117 W Paterson St, Kalamazoo, MI 49007, USA",(269) 349-2641,,
Lansing,-84.5555347,42.732535,0,"Lansing, MI, USA",,,
Alcona Health Center,-83.4037247,44.661088,1,"177 N Barlow Rd, Lincoln, MI 48742, USA",(989) 736-8157,,
Hackley Community Care,-86.2411144,43.2214973,1,"1675 Leahy St #103, Muskegon, MI 49442, USA",(231) 733-6800,,
OIHN - Baldwin Health Center,-83.3022911,42.682693,0,"1701 Baldwin Ave, Pontiac, MI 48340, USA",(248) 724-7600,,
Great Lakes Bay Health Centers,-83.9817304,43.4377015,0,"3023 Davenport Ave, Saginaw, MI 48602, USA",(989) 907-2761,,
People's Center Clinics and Services,-93.2439015,44.9690685,0,"425 20th Ave S, Minneapolis, MN 55454, USA",(612) 332-4973,,
Hennepin County Public Health,-93.262956,44.9744585,0,"525 Portland Ave, Minneapolis, MN 55415, USA",(612) 348-3925,,
Indian Health Board Medical & Dental Center,-93.2553313,44.9589534,0,"1315 E 24th St, Minneapolis, MN 55404, USA",(612) 721-9800,,
Central Clinic - Neighborhood HealthSource,-93.2470708,45.0110272,0,"2301 Central Ave NE, Minneapolis, MN 55418, USA",(612) 588-9411,,
Regents of the University of Mn,-93.2279939,44.9753198,0,"600 McNamara Alumni Center S.E., 200 SE Oak St, Minneapolis, MN 55455, USA",(612) 625-6300,,
Southside Community Health Services,-93.2717639,44.9401838,0,"324 E 35th St, Minneapolis, MN 55408, USA",(612) 827-7181,,
"Community Health Service, Inc.",-96.7671452,46.8712238,0,"810 4th Ave S #101, Moorhead, MN 56560, USA",(218) 236-6502,,
West Side Community Health Services,-93.0780312,44.9301586,1,"153 Cesar Chavez St, St Paul, MN 55107, USA",(651) 602-7500,,
Benton Medical Center,-89.1901716,34.8292955,0,"15921 Boundary Dr, Ashland, MS 38603, USA",(662) 224-8951,,
Coastal Family Health Center Biloxi,-88.8862822,30.4029201,0,"715A Division St, Biloxi, MS 39530, USA",(228) 374-2494,,
G.A. Carmichael Family Health Center,-90.0528202,32.6117044,0,"1668 W Peace St, Canton, MS 39046, USA",(601) 859-5213,,
"Aaron E Henry Community Health Services Center, Inc.",-90.5952465,34.1899439,0,"510 MS-322, Clarksdale, MS 38614, USA",(662) 624-4292,,
Jefferson Comprehensive Health,-91.07621,31.7045249,0,"comprehensive hills center, 405 Main St, Fayette, MS 39069, USA",(601) 786-3475,,
Southeast Mississippi Rural Health Initiative Administrative Services,-89.2985393,31.2870982,0,"5488 US 49, Hattiesburg, MS 39401, USA",(601) 545-8700,,
"Central MS Civic Improvement Association, Inc.",-90.2344763,32.3569138,1,"3502 W Northside Dr, Jackson, MS 39213, USA",(601) 362-5321 ext. 223,,
Mallory Community Health Center,-90.0531748,33.1034618,0,"17280 MS-17, Lexington, MS 39095, USA",(662) 834-1857,,
"Greater Meridian Health Clinic, Inc.",-88.7049195,32.3622759,0,"2701 Davis St, Meridian, MS 39301, USA",(601) 693-0118,,
Douglas County Public Health Services,-92.6686124,36.959448,0,"504 NW 10th Ave, Ava, MO 65608, USA",(417) 683-4831,,
Missouri Highlands Health Care,-90.9684141,37.2414392,0,"110 South 2nd Street, Ellington, MO 63638, USA",(573) 663-2313,,
COMTREA Festus,-90.3927301,38.2206807,0,"110 N Mill St, Festus, MO 63028, USA",(636) 931-2700,,
Ozarks Community Health Center,-93.3156071,37.9417527,0,"18614 Jackson St, Hermitage, MO 65668, USA",(417) 745-2121,,
Hope Family Care Center,-94.5524045,39.0705951,0,"3027 Prospect Ave, Kansas City, MO 64128, USA",(816) 861-6500,,
Samuel U. Rodgers Health Center,-94.5575534,39.1041008,0,"825 Euclid Ave, Kansas City, MO 64124, USA",(816) 474-4920,,
Swope Health Hickman Mills,-94.4988903,38.962863,0,"Office Building, 8800 Blue Ridge Blvd 2nd Fl, Kansas City, MO 64138, USA",(816) 321-3201,,
Northeast Missouri Health Council,-92.573245,40.206731,0,"1416 Crown Dr, Kirksville, MO 63501, USA",(660) 627-5757,,
Preferred Family Healthcare - Kirksville,-92.5745719,40.1781541,0,"900 E La Harpe St, Kirksville, MO 63501, USA",(660) 665-1962,,
Health Care Collaborative of Rural Missouri,-93.8789651,39.1678535,0,"825 S Missouri 13 Business, Lexington, MO 64067, USA",(660) 259-2440,,
Community Health Center,-91.8423385,38.4794464,0,"1016 E Main St, Linn, MO 65051, USA",(573) 897-4946,,
East Central Mo Behavioral,-91.8886267,39.1684436,0,"508 S Muldrow St, Mexico, MO 65265, USA",(573) 581-1196,,
SEMO Health Network- New Madrid Medical,-89.5251024,36.5866866,0,"421 Semo Dr, New Madrid, MO 63869, USA",(573) 748-2592,,
COMC - Central Ozarks Medical Center - Dental,-92.4052474,37.8596886,0,"304 W Washington Ave, Richland, MO 65556, USA",(573) 765-2510,,
Your Community Health Center,-91.755745,37.95974,0,"1081 E 18th St, Rolla, MO 65401, USA",(573) 426-4455,,
Family Medicine Associates (Northwest Health Services),-94.7988492,39.7881706,0,"2303 Village Dr, St Joseph, MO 64506, USA",(816) 232-6818,,
Affinia Healthcare,-90.201809,38.639357,0,"1717 Biddle St, St. Louis, MO 63106, USA",(314) 898-1700,,
Betty Jean Kerr People's Health centers,-90.2855889,38.6544546,0,"5701 Delmar Blvd, St. Louis, MO 63112, USA",(314) 367-7848,,
Bothwell Regional Health Center,-93.2212078,38.6994909,0,"601 E 14th St, Sedalia, MO 65301, USA",(660) 826-8833,,
Advocates For A Healthy Community,-93.2872051,37.2144441,1,"618 N Benton Ave, Springfield, MO 65806, USA",(417) 831-0150,,
Montana Migrant Council,-108.5142111,45.7803189,0,"3318 3rd Ave N, Billings, MT 59101, USA",(406) 248-3149,,
Missoula County,-113.6869923,47.0240503,1,"Missoula County, MT, USA",,,
Bluestem Health - Main Clinic,-96.682773,40.823893,1,"1021 N 27th St, Lincoln, NE 68503, USA",(402) 476-1455,,
"Charles Drew Health Center, Inc.",-95.9558177,41.2794743,0,"2915 Grant St, Omaha, NE 68111, USA",(402) 451-3553,,
OneWorld Bellevue,-95.9242594,41.1677392,1,"2207 Georgia Ave, Bellevue, NE 68005, USA",(402) 502-8855,,
"Nevada Health Centers, Inc",-119.7499037,39.1891851,1,"3325 Research Way, Carson City, NV 89706, USA",(800) 787-2568,,
Southern Nevada Health District,-115.2093253,36.1708132,0,"280 S Decatur Blvd, Las Vegas, NV 89107, USA",(702) 759-1000,,
Hope Christian Health Center,-115.0991269,36.2395754,0,"4357 Corporate Center Dr #450, North Las Vegas, NV 89030, USA",(702) 644-4673,,
Community Health Alliance – Wells Ave. Health Center,-119.8035435,39.5157217,0,"1055 S Wells Ave, Reno, NV 89502, USA",(775) 329-6300,,
Ammonoosuc Community Health: Brodzinski Carey J,-71.7693245,44.3001445,1,"25 Mt Eustis Rd, Littleton, NH 03561, USA",(603) 444-2464,,
Amoskeag Health,-71.4660688,42.9964199,0,"145 Hollis St, Manchester, NH 03101, USA",(603) 626-9500,,
Manchester Street,-71.452993,42.9902017,0,"Manchester St, Manchester, NH, USA",,,
Harbor Homes Inc,-71.4857254,42.7369728,0,"77 Northeastern Blvd, Nashua, NH 03062, USA",(603) 882-3616,,
Lamprey Health Care,-70.9442803,43.0752337,0,"207 S Main St, Newmarket, NH 03857, USA",(603) 659-3106,,
Goodwin Community Health,-70.9013996,43.2582399,0,"311 NH-108, Somersworth, NH 03878, USA",(603) 749-2346,,
Community Health Care Inc,-75.2183482,39.435388,1,"105 Manheim Ave, Bridgeton, NJ 08302, USA",(856) 451-4700,,
CAMcare Health Corporation,-75.1156124,39.9443455,0,"817 Federal St, Camden, NJ 08103, USA",(856) 583-2400,,
Osborn Family Health Center,-75.0956665,39.9266963,0,"1601 Haddon Ave, Camden, NJ 08103, USA",(856) 757-3700,,
Zufall Health Center - Medical (ZHC),-74.5595142,40.8838093,1,"18 W Blackwell St, Dover, NJ 07801, USA",(973) 328-3344,,
AtlantiCare Urgent Care Egg Harbor Township,-74.6058701,39.4325164,0,"2500 English Creek Avenue, Bldg. 900 Suite 908, Egg Harbor Township, NJ 08234, USA",(609) 407-2273,,
Southern Jersey Family Medical Centers,-74.7750861,39.620125,0,"860 S White Horse Pike, Hammonton, NJ 08037, USA",(800) 486-0131,,
Horizon Health Center,-74.0615424,40.7294588,0,"412 Summit Ave, Jersey City, NJ 07306, USA",(201) 710-2200,,
Metropolitan Family Health Network,-74.0705259,40.711001,0,"935 Garfield Ave, Jersey City, NJ 07304, USA",(201) 478-5800,,
Lakewood Resource & Referral Center,-74.2127563,40.092059,0,"212 2nd St #204, Lakewood, NJ 08701, USA",(732) 942-9292,,
"OHI Lakewood Health Center (Ocean Health Initiatives, Inc.)",-74.210857,40.0926875,0,"101 2nd St, Lakewood, NJ 08701, USA",(732) 363-6655,,
Rutgers–New Brunswick,-74.4473991,40.5008186,0,"New Brunswick, NJ, USA",(732) 445-4636,,
City Hall - City of Newark,-74.1738765,40.7317066,0,"920 Broad St, Newark, NJ 07102, USA",(973) 733-6400,,
"Paterson Community Health Center, Inc.",-74.1716275,40.9244899,0,"Clinton St. Center, 32 Clinton St, Paterson, NJ 07522, USA",(973) 790-6594,,
Jewish Renaissance Foundation,-74.2692754,40.5034249,0,"149 Kearny Ave #2, Perth Amboy, NJ 08861, USA",(732) 324-2114,,
Neighborhood Health Services Corporation,-74.4560705,40.5994774,0,"1700-58 Myrtle Ave, Plainfield, NJ 07063, USA",(908) 753-6401,,
Henry J. Austin Health Center,-74.7653378,40.2253553,1,"321 N Warren St, Trenton, NJ 08618, USA",(609) 278-5900,,
North Hudson Community Action Corporation,-74.0259202,40.7750433,1,"400 38th St #216, Union City, NJ 07087, USA",(201) 210-0200,,
Albuquerque Health Care for the Homeless,-106.6457061,35.0954017,0,"1217 1st St NW, Albuquerque, NM 87102, USA",(505) 766-5197,,
"First Choice Community Healthcare, Inc.",-106.6827338,35.0459719,0,"2001 N Centro Familiar Blvd SW, Albuquerque, NM 87105, USA",(505) 873-7402,,
First Nations Community HealthSource,-106.5655634,35.075935,0,"7317 Central Ave NE, Albuquerque, NM 87108, USA",,,
Las Clinicas Del Norte: General Dentistry,-106.1854324,36.3306808,0,"571 NM-571, El Rito, NM 87530, USA",(575) 581-0028,,
EL CENTRO FAMILY HEALTH,-106.0857895,35.9983256,0,"538 N Paseo De Onate, Española, NM 87532, USA",(505) 753-7218,,
Ben Archer Health Center,-107.163324,32.666996,1,"NM-187, Hatch, NM 87937, USA",(575) 267-3088,,
Jemez Pueblo,-106.725868,35.6139173,0,"Jemez Pueblo, NM, USA",,,
La Clinica de Familia - Behavioral Health Specialty Services,-106.7789772,32.3098642,0,"100 W Griggs Ave, Las Cruces, NM 88001, USA",(575) 647-2800,,
St. Luke's Health Care Clinic,-106.7890607,32.3024819,0,"999 W Amador Ave, Las Cruces, NM 88005, USA",(575) 527-5482,,
Mora Valley Community Health Services Inc,-105.2782675,35.9553472,0,"3 Mora Valley Clinic Rd, Mora, NM 87732, USA",(575) 387-2201,,
La Casa Family Health Center,-103.351613,34.185663,0,"1515 W Fir St, Portales, NM 88130, USA",(575) 356-6695,,
Presbyterian Medical Services,-105.944343,35.681643,0,"1422 Paseo De Peralta # 1, Santa Fe, NM 87501, USA",(800) 477-7633,,
Southwest CARE Center Harkle Office,-105.9536703,35.6610023,0,"649 Harkle Rd, Santa Fe, NM 87505, USA",(505) 989-8200,,
Whitney M. Young Jr. Health Center,-73.748213,42.6617826,1,"920 Lark Dr, Albany, NY 12207, USA",(518) 465-4771,,
"The Joseph P. Addabbo Family Health Center, Inc.",-73.791738,40.5934632,1,"6200 Beach Channel Dr, Arverne, NY 11692, USA",(718) 945-7150,,
East Hill Medical Center,-76.568547,42.93021,0,"144 Genesee St, Auburn, NY 13021, USA",(315) 253-8477,,
Bronx Community Health Network,-73.890124,40.860632,1,"1 Fordham Plaza # 1108, The Bronx, NY 10458, USA",(718) 405-7720,,
Bronx Lebanon Integrated Services,-73.9111814,40.8434338,1,"1650 Selwyn Ave, The Bronx, NY 10457, USA",(718) 466-8163,,
La Casa de Salud,-73.9000628,40.8229199,0,"966 Prospect Ave, The Bronx, NY 10459, USA",(718) 842-1412,,
Montefiore Hospital,-73.8799291,40.8803814,0,"111 E 210th St, The Bronx, NY 10467, USA",(718) 920-4321,,
Morris Heights Health Center,-73.9100666,40.854781,0,"85 W Burnside Ave, The Bronx, NY 10453, USA",(718) 716-4400,,
Union Community Health Center,-73.8959461,40.8605731,0,"260 E 188th St, The Bronx, NY 10458, USA",(718) 220-2020,,
Urban Health Plan Inc: Madhurapantula Madhavi DO,-73.8922406,40.825041,1,"1065 Southern Blvd, The Bronx, NY 10459, USA",(718) 589-2440,,
VIP Community Services,-73.8900843,40.8422775,0,"770 E 176th St, The Bronx, NY 10460, USA",(718) 583-5150,,
Bedford-Stuyvesant Family Health Center,-73.9426345,40.6795997,0,"1456 Fulton St, Brooklyn, NY 11216, USA",(718) 636-4500,,
Brooklyn Plaza Medical Center,-73.9761549,40.6867555,0,"650 Fulton St, Brooklyn, NY 11217, USA",(718) 596-9800,,
Brownsville Community Pharmacy,-73.9098237,40.6654444,0,"592 Rockaway Ave, Brooklyn, NY 11212, USA",(718) 345-3399,,
CHI Health Center,-73.9829727,40.577148,0,"2882 W 15th St, Brooklyn, NY 11224, USA",(718) 210-3110,,
"HealthCare Choices, Inc.",-73.894158,40.679998,0,"179 Jamaica Ave, Brooklyn, NY 11207, USA",(929) 267-5354,,
Housing Works East New York Community Health Center,-73.8745974,40.6748677,0,"2640 Pitkin Ave, Brooklyn, NY 11208, USA",(718) 277-0386,,
ODA Primary Health Care Center,-73.9587133,40.6997162,0,"14-16 Heyward St, Brooklyn, NY 11249, USA",,,
Sunset Park Family Health Center at NYU Langone–Second Avenue,-74.0209095,40.6456204,1,"5610 2nd Ave, Brooklyn, NY 11220, USA",(718) 630-7942,,
"Community Health Center of Buffalo, Inc.",-78.8345365,42.9420151,0,"34 Benwood Ave, Buffalo, NY 14214, USA",(716) 986-9199,,
Jericho Road Community Health Center,-78.8947595,42.9179215,1,"184 Barton St, Buffalo, NY 14213, USA",(716) 348-3000,,
Neighborhood Health Center - Mattina,-78.8840452,42.8920727,1,"300 Niagara St, Buffalo, NY 14201, USA",(716) 242-8600,,
Cornerstone Family Healthcare,-74.0368676,41.4452155,1,"2570 Rte 9W #10, Cornwall, NY 12518, USA",(845) 220-3100,,
Damian Family Care Centers,-73.818641,40.708241,0,"2, 138-02 Queens Blvd, Briarwood, NY 11435, USA",(718) 657-1100,,
The Floating Hospital: Queensbridge Health Center,-73.9444081,40.7552412,1,"10-29 41st Ave, Queens, NY 11101, USA",(718) 361-6266,,
"Community Medical & Dental Care, Inc. - Pediatrics",-74.0644635,41.1113348,0,"40 Robert Pitt Dr, Monsey, NY 10952, USA",(845) 352-6800,,
Mount Vernon Neighborhood Health Center,-73.8385818,40.9035965,0,"107 W 4th St, Mt Vernon, NY 10550, USA",(914) 699-7200,,
Refuah Health Center Inc,-74.050608,41.1174593,0,"5 Twin Ave, Spring Valley, NY 10977, USA",(845) 354-9300,,
Care For the Homeless,-73.9829629,40.7466432,0,"30 E 33rd St 5th floor, New York, NY 10016, USA",(212) 366-4459,,
Community Health Project,-74.0031459,40.7430611,0,"356 W 18th St, New York, NY 10011, USA",(212) 627-3769,,
Community Healthcare Network- Lower East Side / Catherine M. Abate,-73.9868425,40.7206065,0,"150 Essex St, New York, NY 10002, USA",(212) 477-1120,,
East Harlem Council-Human Services,-73.9359411,40.7973176,0,"319 E 117th St, New York, NY 10035, USA",(212) 348-6410,,
The Institute for Family Health,-73.9998254,40.7409037,1,"230 W 17th St, New York, NY 10011, USA",(212) 206-5200,,
NYC Health + Hospitals,-74.0088973,40.7034598,0,"65 Water St, New York, NY 10041, USA",(212) 442-3853,,
"Project Renewal, Inc.",-74.0051342,40.7282832,0,"200 Varick St, New York, NY 10014, USA",(212) 620-0340,,
Settlement Health,-73.9441243,40.7909443,0,"212 E 106th St #1, New York, NY 10029, USA",(212) 360-2600,,
21 Club,-73.9774216,40.7605396,0,"21 W 52nd St, New York, NY 10019, USA",(212) 582-7200,,
Harlem United,-73.9449228,40.807913,0,"306 Malcolm X Blvd, New York, NY 10027, USA",(212) 803-2850,,
William F Ryan Community Health,-73.9675886,40.7935824,1,"110 W 97th St, New York, NY 10025, USA",(212) 749-1820,,
Hudson River Healthcare,-73.9173819,41.2901355,1,"1200 Brown St, Peekskill, NY 10566, USA",,,
Finger Lakes Community Health,-77.055357,42.6617825,1,"14 Maiden Ln, Penn Yan, NY 14527, USA",(315) 531-9102,,
Hudson Headwaters Health Network,-73.6904824,43.2957263,0,"9 Carey Rd, Queensbury, NY 12804, USA",(518) 761-0300,,
Anthony L. Jordan Health Center,-77.6018621,43.1693914,0,"82 Holland St, Rochester, NY 14605, USA",(585) 423-5800,,
Family Health Center,-73.9157455,42.8044534,0,"624 McClellan St # 101, Schenectady, NY 12304, USA",(518) 382-2260,,
Community Health Center of Richmond Port Richmond Health Center,-74.1349334,40.6353759,0,"235 Port Richmond Ave, Staten Island, NY 10302, USA",(718) 876-1732,,
North Country Family Health Center,-75.9153183,43.9762978,0,"238 Arsenal St, Watertown, NY 13601, USA",(315) 782-9450,,
Black River Family Practice,-77.9209969,34.5496515,0,"301 S Campbell St, Burgaw, NC 28425, USA",(910) 259-5721,,
Piedmont Health Services Inc: Steiner Beat D MD,-79.0696849,35.9131794,1,"301 Lloyd St, Carrboro, NC 27510, USA",(919) 933-8494,,
C.W. Williams Community Health Center,-80.8959649,35.2241971,0,"3333 Wilkinson Blvd, Charlotte, NC 28208, USA",(866) 299-4968,,
Charlotte Community Health Clinic,-80.9271298,35.231729,0,"5301 Wilkinson Blvd, Charlotte, NC 28208, USA",(704) 316-6561,,
Collettsville Medical Center,-81.675736,35.926683,0,"4330 Collettsville Rd, Collettsville, NC 28611, USA",(828) 754-2409,,
Cabarrus Community Health Center,-80.5979299,35.4170124,0,"202 McGill Ave NW # D, Concord, NC 28025, USA",(704) 792-2242,,
Lincoln Community Health Center/pharmacy,-78.8978874,35.9804244,0,"1301 Fayetteville St, Durham, NC 27707, USA",(919) 956-4000,,
Gaston Family Health,-81.1795316,35.2613218,0,"200 E Second Ave, Gastonia, NC 28052, USA",(704) 874-1900,,
Triad Adult & Pediatric Medicine - Pediatrics at Wendover,-79.7724083,36.0875713,1,"1046 Wendover Ave E, Greensboro, NC 27405, USA",(336) 272-1050,,
Blue Ridge Health - Chimney Rock Road,-82.4312,35.349669,0,"2579 Chimney Rock Rd, Hendersonville, NC 28792, USA",(828) 692-4289,,
"Kinston Community Health Center, Inc",-77.5815788,35.2632511,0,"324 N Queen St, Kinston, NC 28501, USA",(252) 522-9800,,
First Choice Community Health Centers,-78.8155485,35.4246919,0,"40 Autumn Fern Trail, Lillington, NC 27546, USA",(910) 364-0970,,
Commwell Health Newton Grove/Spivey's Corner Medical,-78.4512765,35.2430255,0,"3331 Easy St, Dunn, NC 28334, USA",(877) 935-5255,,
Robeson Health Care Corporation,-79.17876,34.6796,0,"211 E Wardell St, Pembroke, NC 28372, USA",(910) 521-3583,,
Advance Community Health,-78.6156492,35.7674839,0,"1001 Rock Quarry Rd, Raleigh, NC 27610, USA",(919) 833-3111,,
Heartland Health Centers-Trilogy,-87.6665425,42.0105742,1,"1400 W Greenleaf Ave, Chicago, IL 60626, USA",(773) 508-6135,,
"Rural Health Group, Inc. - Corporate Office",-77.6539072,36.4646059,1,"500 Jackson St, Roanoke Rapids, NC 27870, USA",(252) 536-5440,,
Opportunities Industrialization Center,-77.7866018,35.9509943,0,"402 E Virginia St, Rocky Mount, NC 27801, USA",(252) 977-3730,,
Person Family Medical & Dental Center,-78.9779822,36.4020596,0,"702 N Main St, Roxboro, NC 27573, USA",(336) 599-9271,,
Greene County Health Care Inc,-77.680914,35.453299,1,"7 Professional Dr, Snow Hill, NC 28580, USA",(252) 747-8162,,
"Stedman-Wade Health Services, Inc.",-78.7299294,35.1592543,0,"7118 Main St, Wade, NC 28395, USA",(910) 483-6694,,
Carolina Family Health Centers,-77.907738,35.7248753,0,"303 Green St E, Wilson, NC 27893, USA",(252) 243-9800,,
Bertie County Rural Health,-76.9300618,35.988615,0,"104 Rhodes Ave, Windsor, NC 27983, USA",(252) 794-3042,,
Spectra Health,-97.0281692,47.9221995,1,"212 S 4th St, Grand Forks, ND 58201, USA",(701) 757-2100,,
"Kagman Community Health Center, Admin Office",145.7779045,15.1784264,0,"Kagman III, Kagman, Saipan 96950, CNMI",(670) 256-5242,,
"Asian Services In Action, Inc.",-81.505982,41.0804706,0,"370 E Market St, Akron, OH 44304, USA",(330) 535-3263,,
AxessPointe Community Health Centers/Arlington,-81.4928697,41.0340432,1,"1400 S Arlington St #38, Akron, OH 44306, USA",(330) 724-5471,,
"Hopewell Health Centers, Inc.",-83.0127719,39.3333179,0,"1049 Western Ave, Chillicothe, OH 45601, USA",(740) 773-4366,,
Cincinnati Health Network,-84.5017164,39.1318847,1,"2825 Burnet Ave #232, Cincinnati, OH 45219, USA",(513) 961-0600,,
Cincinnati,-84.5120196,39.1031182,0,"Cincinnati, OH, USA",,,
The HealthCare Connection Inc. Lincoln Heights Health Center,-84.4525044,39.2389742,0,"1401 Steffen Ave, Cincinnati, OH 45215, USA",(513) 588-3623,,
WinMed Health Services,-84.5148759,39.1853039,0,"5275 Winneste Ave, Cincinnati, OH 45232, USA",(513) 242-1033,,
Care Alliance Health Center,-81.6847025,41.5065133,0,"1530 St Clair Ave NE, Cleveland, OH 44114, USA",(216) 535-9100,,
"Northeast Ohio Neighborhood Health Services, Inc. (NEON) - East Cleveland Health Center",-81.57562,41.5367918,0,"15201 Euclid Ave, Cleveland, OH 44112, USA",(216) 541-5600,,
Northeast Ohio Neighborhood Health Services Inc,-81.6299774,41.5092067,0,"8300 Hough Ave, Cleveland, OH 44103, USA",(216) 231-7700,,
PrimaryOne Health West Broad Location,-83.0612901,39.9558315,0,"2300 W Broad St, Columbus, OH 43204, USA",(614) 645-5500,,
Heart of Ohio Family Health at Capital Park,-82.9518432,40.036808,0,"2365 Innis Rd, Columbus, OH 43224, USA",(614) 235-5555,,
Lower Lights Christian Health Center,-83.0318069,39.9591522,0,"1160 W Broad St, Columbus, OH 43222, USA",(614) 274-1455,,
Southeast Healthcare,-83.0016827,39.965111,0,"16 W Long St, Columbus, OH 43215, USA",(614) 225-0990,,
Community Health Centers of Greater Dayton,-84.2172602,39.7560353,0,"1323 W Third St, Dayton, OH 45402, USA",(937) 586-9733,,
Butler County Community Health,-84.562474,39.3982866,0,"210 S 2nd St #1, Hamilton, OH 45011, USA",(513) 892-1888,,
Ironton-Lawrence County CAO,-82.6847778,38.5386543,0,"305 N 5th St, Ironton, OH 45638, USA",(740) 532-3140,,
Health Partners of Western Ohio,-84.099053,40.7122978,1,"441 E 8th St, Lima, OH 45804, USA",(419) 221-3072,,
Third Street Family Health Services,-82.5374802,40.7606139,0,"600 W 3rd St, Mansfield, OH 44906, USA",(419) 522-6191,,
"COPC Westerville Tsalikova, Fatima MD",-83.1317229,40.588218,0,"205 W Center St # 200, Marion, OH 43302, USA",(614) 901-2273,,
Shawnee Mental Health Center,-82.9987862,38.7376788,0,"901 Washington St, Portsmouth, OH 45662, USA",(740) 354-7702,,
Sandusky,-82.7116821,41.4561754,0,"Sandusky, OH 44870, USA",,,
Ohio North East Health System,-80.6429419,41.1093131,0,"726 Wick Ave, Youngstown, OH 44505, USA",(330) 747-2330,,
"Shortgrass Community Health Center, Inc.",-99.91436,34.6958503,0,"400 E Sycamore St, Hollis, OK 73550, USA",(580) 688-2800,,
Variety Care Straka Terrace,-97.5345056,35.3880719,1,"1025 Straka Terrace, Oklahoma City, OK 73139, USA",(405) 632-6688,,
Stigler Health & Wellness Center,-95.1073245,35.2578866,0,"1505 E Main St, Stigler, OK 74462, USA",(918) 967-3368,,
Virginia Garcia Memorial Health Center,-122.9767156,45.520804,1,"226 SE 8th Ave, Hillsboro, OR 97123, USA",(503) 601-7400,,
Eugene,-123.0867536,44.0520691,1,"Eugene, OR, USA",,,
Siskiyou Community Health Center,-123.3258741,42.4581159,0,"1701 NW Hawthorne Ave, Grants Pass, OR 97526, USA",(541) 471-3455,,
La Clinica West Medford Health Center,-122.8868909,42.323455,0,"1307 W Main St, Medford, OR 97501, USA",(541) 535-6239,,
Oregon City,-122.6050422,45.3364465,0,"Oregon City, OR 97045, USA",,,
Multnomah County,-122.5863212,45.5145659,1,"Multnomah County, OR, USA",,,
"NARA Administration, Child & Family Services",-122.4245633,45.498769,0,"620 NE 2nd St, Gresham, OR 97030, USA",(503) 224-1044,,
Neighborhood Health Center - Milwaukie Medical Clinic,-122.629271,45.448712,1,"10330 SE 32nd Ave Ste 325, Portland, OR 97222, USA",(503) 416-1960,,
The Wallace Medical Concern,-122.4759465,45.5233268,0,"18139 NE Couch St, Portland, OR 97230, USA",,,
Mosaic Medical - Prineville Clinic,-120.8491401,44.3035339,0,"375 NW Beaver St Ste 101, Prineville, OR 97754, USA",(541) 383-3005,,
Tillamook,-123.8440137,45.4562158,0,"Tillamook, OR 97141, USA",,,
Palau,134.58252,7.51498,0,Palau,,,
Neighborhood Health Center,-75.4615578,40.6088376,0,"218 N 2nd St, Allentown, PA 18102, USA",(610) 841-8400,,
Star Community Health Women's Health - Bethlehem,-75.3937008,40.6089201,0,"801 Ostrum St, Bethlehem, PA 18015, USA",(484) 526-4761,,
Chespenn Health Services,-75.393587,39.838041,0,"2600 W 9th St, Chester, PA 19013, USA",(610) 485-3800,,
Centerville Clinics - Joseph A. Yablonski Memorial Clinic,-79.9839273,40.0473928,0,"1070 Old National Pike, Fredericktown, PA 15333, USA",(724) 632-6801,,
Cornerstone Care Community Health Center of Greensboro,-79.9153781,39.8008687,0,"7 Glassworks Rd, Greensboro, PA 15338, USA",(724) 943-3308,,
Hamilton Health Center Inc,-76.861339,40.251105,0,"1301 Sycamore St, Harrisburg, PA 17104, USA",(717) 230-3909,,
Lancaster Health Center,-76.3102569,40.0432548,0,"304 N Water St, Lancaster, PA 17603, USA",(717) 299-6371,,
Meadow Creek Family Practice,-76.0733032,40.0997123,0,"435 S Kinzer Ave, New Holland, PA 17557, USA",(717) 351-2400,,
Delaware Valley Community Health,-75.1614056,39.9669239,1,"1412 Fairmount Ave, Philadelphia, PA 19130, USA",(215) 235-9600,,
Esperanza Health Center,-75.1364988,40.0189565,0,"4417 N 6th St, Philadelphia, PA 19140, USA",(215) 302-3600,,
"GREATER PHILADELPHIA HEALTH ACTION, INC",-75.148743,39.9592238,0,"432 N 6th St, Philadelphia, PA 19123, USA",(215) 925-2400,,
Philadelphia FIGHT,-75.1617544,39.948075,0,"1233 Locust St, Philadelphia, PA 19107, USA",(215) 985-4448,,
Philadelphia,-75.1652215,39.9525839,0,"Philadelphia, PA, USA",,,
Project HOME,-75.1612585,39.9672135,0,"1515 Fairmount Ave, Philadelphia, PA 19130, USA",(215) 232-7272,,
Public Health Management Corporation,-75.1664857,39.9523167,1,"1500 Market St, Philadelphia, PA 19102, USA",(215) 985-2500,,
Resources For Human Development Inc,-75.133448,40.0244392,1,"4800 N 5th St, Philadelphia, PA 19120, USA",(215) 329-3022,,
Spectrum Community Health Center (SCHC),-75.2250449,39.9652863,0,"5201 Haverford Ave, Philadelphia, PA 19139, USA",(215) 471-2761,,
East Liberty Family Health Care Center - East Liberty,-79.9230037,40.4629273,0,"6023 Harvard St, Pittsburgh, PA 15206, USA",(412) 661-2802,,
"Primary Care Health Services, Inc.",-79.896213,40.454588,0,"7227 Hamilton Ave 2nd floor, Pittsburgh, PA 15208, USA",(412) 244-7792,,
Community Health & Dental Care,-75.6616449,40.2369002,0,"351 W Schuylkill Rd Suite G-15A, Pottstown, PA 19465, USA",(610) 326-9460,,
The Wright Center for Community Health | The Wright Center for Graduate Medical Education Admin Bldg,-75.6696243,41.4013862,0,"501 S Washington Ave Suite 1000, Scranton, PA 18505, USA",(570) 343-2383,,
River Valley Health & Dental Center,-77.0078411,41.2421983,1,"471 Hepburn St, Williamsport, PA 17701, USA",(570) 567-5400,,
Centro Salud Familiar Dr. Julio Palmieri Ferri,-66.060217,17.9684466,0,"Arroyo, 00714, Puerto Rico",(787) 839-4150,,
Atlantic Medical Center,-66.5639949,18.4301026,0,"PR-2, Barceloneta, 00617, Puerto Rico",(787) 846-4412,,
Community Health Foundation of Puerto Rico,-66.1483478,18.3958586,0,"17 Calle Marginal C, Bayamón, 00961, Puerto Rico",(787) 780-1273,,
Corporacion SANOS,-66.0303497,18.2334003,0,"Esquina Troche, Av. Rafael Cordero, Caguas, 00725, Puerto Rico",(787) 745-0340,,
Camuy Health Services,-66.8431641,18.4839321,0,"#63, Ave Luis Munoz Rivera, Camuy, 00627, Puerto Rico",(787) 898-2660,,
Hospital General Castañer,-66.8331137,18.1810502,0,"Carr. 135 KM 4.5, Castañer, Lares 00631, Puerto Rico",(787) 829-5010,,
COSSMA Cidra,-66.154489,18.1786201,0,"Ave El Jibaro Carr #172 Km 13.5 Bo, Cidra, 00739, Puerto Rico",(787) 739-8182,,
"NeoMed Center, Inc. - Gurabo Center",-65.97497,18.257712,0,"941 Salida Bo. Jaguas Calle, Gurabo, 00778, Puerto Rico",(787) 737-2311,,
Corporación de Servicios Médicos IPA-19,-66.8255639,18.4873643,0,"Hatillo, 00659, Puerto Rico",(787) 898-4190,,
Centros Integrados de Servicios de Salud Lares,-66.8853835,18.2906226,0,"Lares, 00669, Puerto Rico",(787) 897-2727,,
Migrant Health Center Clinica Mayaguez,-67.143209,18.1847052,1,"Calle Ramón Emeterio Betances, #392 sur, Mayagüez 00681, Puerto Rico",(787) 805-2900,,
Morovis Community Health Center,-66.40442,18.326366,0,"#2 Carr Patron, Morovis, 00687, Puerto Rico",(787) 862-3000,,
"Salud Integral en la Montaña, Inc. Clinica La Montaña",-66.2824541,18.2588079,1,"Cedro Arriba, Naranjito 00782, Puerto Rico",(787) 869-5900,,
Centro de Servicios Primarios de Salud de Patillas,-66.0131466,18.0036952,1,"99 Cll Guillermo Riefkohl, Patillas, 00723, Puerto Rico",(787) 839-4320,,
"Med Centro, Inc.",-66.6157806,17.9919697,1,"1034 Av. Hostos, Ponce, 00716, Puerto Rico",(787) 843-9393,,
Costa Salud Community Health Center,-67.2518856,18.3388866,0,"Rincon, Rincón 00677, Puerto Rico",(787) 823-5500,,
Health ProMed,-66.056066,18.4376724,0,"Avenida Borinquen, San Juan, 00915, Puerto Rico",(787) 268-4171,,
San Juan,-66.1057355,18.4655394,0,"San Juan, Puerto Rico",,,
PR CoNCRA,-66.0522082,18.3966848,0,"Urb. García Ubarri, #1162, Calle Brumbaugh, San Juan, 00925, Puerto Rico",(787) 753-9437,,
"Comprehensive Community Action,Inc.",-71.4158428,41.8281064,0,"111 Francis St, Providence, RI 02908, USA",,,
East Bay Community Action Program,-71.3124793,41.5169941,0,"6 John H Chafee Blvd, Newport, RI 02840, USA",(401) 848-2160,,
Northwest Community Health Cr,-71.702394,41.95678,0,"36 Bridge Way, Pascoag, RI 02859, USA",(401) 285-5101,,
Providence Community Health Centers,-71.4016649,41.8028161,1,"375 Allens Ave, Providence, RI 02905, USA",(401) 444-0400,,
Thundermist Health Center of Woonsocket,-71.5063171,42.0070571,1,"450 Clinton St, Woonsocket, RI 02895, USA",(401) 767-4100,,
Fetter Health Care Network - Charleston Health Center & Corporate Office,-79.9388134,32.7939273,1,"51 Nassau St, Charleston, SC 29403, USA",(843) 722-4112,,
"Rural Health Services, Inc",-81.8970909,33.4941021,0,"4645 Augusta Rd, Beech Island, SC 29842, USA",(803) 593-9283,,
Eau Claire Walk-In,-81.0438096,34.0459609,0,"4605 Monticello Rd Building B, Suite 2, Columbia, SC 29203, USA",(803) 753-5590,,
Health Care Partners Of South Carolina,-79.0563667,33.8509838,0,"1608 Main St, Conway, SC 29526, USA",(843) 248-4700,,
"Low Country Health Care System, Inc.",-81.249802,32.9658573,0,"333 Revolutionary Trail, Fairfax, SC 29827, USA",(803) 632-2533,,
New Horizon Family Health Services,-82.414598,34.815959,0,"975 W Faris Rd, Greenville, SC 29605, USA",(864) 729-8330,,
CareSouth Carolina,-80.0722992,34.3730082,0,"201 S 5th St, Hartsville, SC 29550, USA",(843) 857-0111,,
Little River Medical Center,-78.5987243,33.8832359,0,"4303 Live Oak Dr, Little River, SC 29566, USA",(843) 663-8000,,
St. James Health and Wellness,-79.5114593,33.0821113,0,"1189 Tibwin Rd, McClellanville, SC 29458, USA",(843) 887-3274,,
Beaufort Jasper Hampton Comprehensive Health Services,-80.9856033,32.4968948,0,"Family Medical Center, 1520 Grays Hwy, Ridgeland, SC 29936, USA",(843) 726-3979,,
United Way of Oconee County,-82.9550518,34.6980736,0,"528 Bypass 123 Suite C, Seneca, SC 29678, USA",(864) 882-9743,,
Horizon Health Care Administration Office,-97.5268854,44.0112629,1,"109 N Main St, Howard, SD 57349, USA",(605) 772-4525,,
Ocoee Regional Health Corporation,-84.6358355,35.186564,0,"6784 US-411, Benton, TN 37307, USA",(423) 338-2831,,
Hamilton County Health Department,-85.2920073,35.0484961,0,"921 E 3rd St, Chattanooga, TN 37403, USA",(423) 209-8000,,
Putnam County Health Department,-85.5229902,36.1494165,0,"701 County Services Dr, Cookeville, TN 38501, USA",(931) 528-2531,,
Cherokee Health Systems: Allen William PHD,-83.9453236,35.9665829,1,"2018 Western Ave, Knoxville, TN 37921, USA",(865) 544-0406,,
Christ Community Health Services,-89.9767585,35.1096896,0,"2569 Douglass Ave, Memphis, TN 38114, USA",(901) 842-3164,,
Tri-State Community Health Center,-89.9286313,35.0643671,0,"4041 Knight Arnold Rd, Memphis, TN 38118, USA",(901) 572-1573,,
Matthew Walker Comprehensive Health Center,-86.8011117,36.170308,0,"1035 14th Ave N, Nashville, TN 37208, USA",(615) 327-9400,,
Tennessee Department of Health,-86.818922,36.1958299,0,"665 Mainstream Dr, Nashville, TN 37243, USA",(615) 741-3011,,
Neighborhood Health at Welshwood,-86.7302031,36.0824696,0,"419 Welshwood Dr, Nashville, TN 37211, USA",(615) 227-3000,,
"Rural Health Services Consortium, Inc.",-83.0163072,36.3963268,0,"4307 TN-66, Rogersville, TN 37857, USA",(423) 921-1600,,
Community Action Corporation of South Texas Enrollment,-98.0472946,27.7644004,1,"700 N Flournoy Rd, Alice, TX 78332, USA",(361) 664-3171,,
Adoue Family Health Center,-95.2550946,29.4196538,0,"1111 W Adoue St, Alvin, TX 77511, USA",(281) 824-1480,,
Central Health,-97.7331915,30.2595002,1,"1111 E Cesar Chavez St, Austin, TX 78702, USA",(512) 978-8000,,
MEHOP,-95.9718897,29.0034529,0,"101 Avenue F, Bay City, TX 77414, USA",(979) 245-2008,,
Eric Todd | Brazos Valley Community Action Agency Inc,-96.315992,30.637332,0,"1500 University Dr E, College Station, TX 77840, USA",(979) 846-1100,,
Lone Star Family Health Center,-95.471432,30.2854351,0,"605 S, Conroe Medical Dr, Conroe, TX 77304, USA",(936) 539-4004,,
Amistad Community Health Center,-97.4050003,27.7750586,0,"1533 S Brownlee Blvd, Corpus Christi, TX 78404, USA",(361) 884-2242,,
Coastal Bend Wellness Foundation,-97.4238409,27.722308,0,"2882 Holly Rd, Corpus Christi, TX 78415, USA",(361) 814-2001,,
"South Texas Rural Health Services, Inc.",-99.2360305,28.4339656,0,"105 S Stewart St, Cotulla, TX 78014, USA",(830) 879-2502,,
"Vida Y Salud-Health Systems, Inc.",-99.8237304,28.6763896,0,"308 Cesar Chavez, Crystal City, TX 78839, USA",(830) 374-2301,,
Dallas County Hospital District,-96.8385386,32.8107052,0,"5201 Harry Hines Blvd, Dallas, TX 75235, USA",(214) 590-8000,,
Healing Hands Ministries,-96.7543387,32.8945879,0,"#N-108, 8515 Greenville Ave, Dallas, TX 75243, USA",(214) 221-0855,,
Martin Luther King Jr Family Clinic,-96.7660254,32.77056,0,"2922 Martin Luther King Jr Blvd, Dallas, TX 75215, USA",(214) 426-3645,,
United Medical Center,-100.4789128,28.7300521,1,"2525 N Veterans Blvd, Eagle Pass, TX 78852, USA",(830) 773-5358,,
"Centro de Salud Familiar La Fe, Inc.",-106.4797938,31.7700886,0,"1314 Yandell Dr, El Paso, TX 79902, USA",(915) 534-7979,,
Project Vida Health Center,-106.4503234,31.7720393,0,"3612 Pera Ave, El Paso, TX 79905, USA",(915) 533-7057,,
Northside Community Health Center,-97.3939837,32.795545,0,"2332 Beverly Hills Dr, Fort Worth, TX 76114, USA",(817) 625-4254,,
Lone Star Circle of Care HQ,-97.6754951,30.6336833,1,"205 E University Ave, Georgetown, TX 78626, USA",(877) 800-5722,,
Su Clinica,-97.667794,26.1718401,0,"1706 Treasure Hills Blvd, Harlingen, TX 78550, USA",(956) 365-6000,,
Asian American Health Coalition,-95.5508928,29.7033635,0,"7001 Corporate Dr, Houston, TX 77036, USA",(713) 773-0803,,
El Centro de Corazón John S. Dunn Health Center,-95.286923,29.735872,0,"7635 Canal St, Houston, TX 77012, USA",(713) 660-1880,,
Harris Health System,-95.3873527,29.6862447,0,"2525 Holly Hall St, Houston, TX 77054, USA",(713) 566-3600,,
Healthcare For the Homeless - Houston,-95.3683425,29.7480924,0,"1934 Caroline St, Houston, TX 77002, USA",(713) 286-6000,,
Houston Area Community Services,-95.4191216,29.7330212,0,"3730 Kirby Dr #820, Houston, TX 77098, USA",(713) 526-0555,,
"Houston Community Health Centers, Inc.",-95.3098829,29.7803836,0,"424B Hahlo St, Houston, TX 77020, USA",,,
Legacy Community Health - North Line Clinic,-95.3935508,29.8480506,1,"5598-A1 Northtown Plaza Houston TX 77076 US, North Fwy, Houston, TX 77076, USA",(281) 628-2030,,
St. Hope Foundation - Corporate Office,-95.5054623,29.7152161,0,"6200 Savoy Dr ste 540, Houston, TX 77036, USA",(713) 778-1300,,
Spring Branch Community Health Center - West Houston Clinic,-95.707286,29.830642,0,"19333 Clay Rd, Katy, TX 77449, USA",(713) 462-6555,,
"Gateway Community Health Center, Inc.",-99.4767405,27.5356928,1,"1515 Pappas St, Laredo, TX 78041, USA",(956) 795-8100,,
South Plains Rural Health,-102.3798937,33.5715863,0,"1000 FM300, Levelland, TX 79336, USA",(806) 305-0926,,
Special Health Resources,-94.7309929,32.4969019,0,"410 Fourth St, Longview, TX 75602, USA",(903) 234-8808,,
"Community Health Center of Lubbock, Inc",-101.8537258,33.5916702,0,"1610 5th St, Lubbock, TX 79401, USA",(806) 765-2611,,
Midland Community Healthcare Services,-102.1038823,31.9936322,0,"2502 Delano Ave, Midland, TX 79701, USA",(432) 699-3817,,
Pasadena Health Center,-95.2011254,29.6897705,0,"908 Southmore Ave #100, Pasadena, TX 77502, USA",(713) 597-8051,,
Nuestra Clinica del Valle,-98.166706,26.2105229,0,"1203 E Ferguson Ave, Pharr, TX 78577, USA",(956) 787-0787,,
RHN Plainview Medical,-101.7328106,34.2066326,0,"2601 Dimmitt Suite 104, Plainview, TX 79072, USA",(806) 291-0297,,
"Atascosa Health Center, Inc.",-98.4868204,28.9574837,0,"310 W. Oaklawn Street, Pleasanton, TX 78064, USA",(830) 569-2527,,
Gulf Coast Health Center,-93.9358707,29.9046682,0,"2548 Memorial Blvd, Port Arthur, TX 77640, USA",(409) 983-1161,,
AccessHealth Richmond Clinic,-95.7602734,29.5786836,0,"400 Austin St, Richmond, TX 77469, USA",(281) 342-4530,,
CommuniCare Health Centers - West Campus,-98.5421103,29.4097534,1,"1102 Barclay St, San Antonio, TX 78207, USA",(210) 233-7000,,
El Centro Del Barrio Clinic,-98.633184,29.3998565,1,"7404 W US Hwy 90, San Antonio, TX 78227, USA",(210) 440-3368,,
Fresenius Medical Care at Kindred Chicago- Lakeshore,-87.655904,41.993599,0,"6130 N Sheridan Rd, Chicago, IL 60660, USA",(773) 381-1222,,
Tyler Family Circle Of Care,-95.2988392,32.3439705,0,"214 E Houston St, Tyler, TX 75702, USA",(903) 535-9041,,
Community Health Development Inc,-99.790245,29.1935939,0,"908 Evans St, Uvalde, TX 78801, USA",(830) 278-5604,,
Heart Of Texas Community Health Center,-97.1528905,31.5590161,0,"1600 Providence Dr, Waco, TX 76707, USA",(254) 313-4200,,
Paiute Indian Tribe of Utah,-113.0578039,37.6850231,0,"440 N Paiute Dr, Cedar City, UT 84721, USA",(435) 586-1112,,
Carbon Medical Service,-110.393341,39.5502395,0,"331 UT-123, Sunnyside, UT 84539, USA",(435) 888-4411,,
Utah Partners for Health,-111.909871,40.612299,0,"7651 S Main St, Midvale, UT 84047, USA",(801) 417-0131,,
Utah Navajo Health System Inc.,-109.3038585,37.2602953,0,"1478 East, UT-162, Montezuma Creek, UT 84534, USA",(435) 651-3700,,
Mountainlands Community Health,-111.6302022,40.2119669,0,"Provo, UT 84606, USA",(801) 429-2006,,
Wasatch Homeless Health Care: Corral Silvia MD,-111.9029039,40.7602419,0,"404 400 W, Salt Lake City, UT 84101, USA",(801) 364-0058,,
Mountain Health Center,-73.0848605,44.1383303,0,"61 Pine St, Bristol, VT 05443, USA",(802) 453-5028,,
The Health Center,-72.4330425,44.27747,0,"157 Towne Ave, Plainfield, VT 05667, USA",(802) 454-8336,,
Richford Health Center,-72.6731608,44.996372,1,"44 Main St #200, Richford, VT 05476, USA",(802) 255-5500,,
Frederiksted Health Care Inc,-64.8829295,17.7104078,1,"516 Strand St, Frederiksted, St Croix 00840, USVI",(340) 772-0260,,
East End Family Health Center,-64.8900846,18.3395921,0,"4605, 4605 Tutu Park Mall, Anna's Retreat, St Thomas 00802, USVI",(340) 775-3700,,
Neighborhood Health,-77.0805188,38.7734927,1,"6677 Richmond Hwy, Alexandria, VA 22306, USA",(703) 535-5568,,
Blue Ridge Medical Center,-78.9339264,37.7066469,0,"4038 Thomas Nelson Hwy, Arrington, VA 22922, USA",(434) 263-4000,,
Piedmont Access To Health Services,-79.3951888,36.5857727,1,"705 Main St, Danville, VA 24541, USA",(434) 791-3630,,
Horizon Health Services Inc,-76.9039368,36.9008007,0,"8575 Ivor Rd, Ivor, VA 23866, USA",(757) 859-6161,,
HealthWorks for Northern Virginia - Leesburg,-77.5407765,39.1089838,0,"163 Fort Evans Rd NE, Leesburg, VA 20176, USA",(703) 443-2000,,
Peninsula Institute-Community Health,-76.5543732,37.1503152,0,"15425 Warwick Blvd, Newport News, VA 23608, USA",(757) 874-8400,,
Hampton Roads Community Health Center,-76.3047249,36.8251391,0,"664 Lincoln St, Portsmouth, VA 23704, USA",(757) 393-6363,,
The Daily Planet Inc,-77.4816245,37.5059147,0,"180 E Belt Blvd, Richmond, VA 23224, USA",(804) 783-2505,,
Richmond,-77.4360481,37.5407246,0,"Richmond, VA, USA",,,
Southern Dominion Health System,-78.1962982,36.9704555,0,"1508 K-V Rd, Victoria, VA 23974, USA",(434) 696-2165,,
GPW Health Center,-77.340726,38.6734473,0,"4379 Ridgewood Center Dr #102, Woodbridge, VA 22192, USA",(703) 680-7950,,
Unity Care NW - Bellingham,-122.4760444,48.7537102,0,"220 Unity St, Bellingham, WA 98225, USA",(360) 676-6177,,
Peninsula Community Health Services Bremerton Medical Clinic,-122.628868,47.567815,0,"616 6th St, Bremerton, WA 98337, USA",(360) 377-3776,,
NEW Health Programs Association,-117.71036,48.2767192,0,"509 E Main Ave, Chewelah, WA 99109, USA",(509) 935-6001,,
Colville Tribe Sr Meal Site,-118.2052372,48.2994774,0,"Inchelium, WA 99138, USA",(509) 722-7074,,
Grant Mental Healthcare,-119.908334,46.7373742,0,"76 Government Rd #4, Mattawa, WA 99349, USA",(509) 932-0100,,
Family Health Center,-119.5938119,48.3569012,1,"1234 2nd Ave S, Okanogan, WA 98840, USA",(509) 422-2573,,
COLUMBIA BASIN HEALTH,-119.170685,46.8128089,1,"1515 Columbia St, Othello, WA 99344, USA",(509) 488-5256,,
Tri-Cities Community Health,-119.096134,46.241585,1,"515 W Court St, Pasco, WA 99301, USA",(509) 547-2204,,
HealthPoint Renton,-122.2148421,47.4815423,1,"200 S 2nd St, Renton, WA 98057, USA",(425) 226-5536,,
International District Medical and Dental Clinic (ICHS) - International Community Health Services,-122.3221321,47.596171,1,"720 8th Ave S, Seattle, WA 98104, USA",(206) 788-3700,,
Seattle,-122.3320708,47.6062095,1,"Seattle, WA, USA",,,
Sea Mar Community Health Center,-122.3151543,47.5232482,1,"8915 14th Ave S, Seattle, WA 98108, USA",(206) 762-3263,,
Community Health Association-Spokane,-117.5888486,47.6452791,1,"12824 W 12th Ave, Airway Heights, WA 99001, USA",(509) 244-6014,,
NATIVE Project,-117.4393177,47.6704916,0,"1803 W Maxwell Ave, Spokane, WA 99201, USA",(509) 483-7535,,
Community Health Care,-122.4055467,47.2171393,1,"1708 E 44th St, Tacoma, WA 98404, USA",(253) 471-4553,,
Toppenish Medical-Dental Clinic,-120.3165121,46.3742106,1,"510 W 1st Ave, Toppenish, WA 98948, USA",(509) 865-5600,,
Columbia Valley Community Health Center,-120.3180415,47.4190547,0,"600 Orondo Ave #1, Wenatchee, WA 98801, USA",(509) 662-6000,,
Yakima Neighborhood Health Services:,-120.49563,46.6038345,1,"12 S 8th St, Yakima, WA 98901, USA",(509) 454-4143,,
E.A. Hawse Health Center,-78.736332,39.048003,0,"17978 WV-55, Baker, WV 26801, USA",(304) 897-5915,,
Community Health Systems Inc,-81.17903,37.791354,0,"252 Rural Acres Dr, Beckley, WV 25801, USA",(304) 252-0187,,
Camden On Gauley Medical Center: Hickey Meg MD,-80.610938,38.365212,0,"10003 Webster Rd, Camden-On-Gauley, WV 26208, USA",(304) 226-5725,,
Tug River Health Association,-81.5528011,37.3665479,0,"5883 Black Diamond Hwy Box 507, Gary, WV 24836, USA",(304) 448-2101,,
Preston Taylor Pharmacy,-80.018893,39.345373,0,"725 N Pike St, Grafton, WV 26354, USA",(304) 265-7400,,
Valley Health Systems Inc,-82.4422579,38.4205112,1,"401 10th St, Huntington, WV 25701, USA",(304) 525-3334,,
Shenandoah Community Health,-77.966459,39.4738902,1,"99 Tavern Rd, Martinsburg, WV 25401, USA",(304) 263-4999,,
Mountaineer Community Health Center,-78.453214,39.5249279,0,"783 Winchester St, Paw Paw, WV 25434, USA",(304) 947-5500,,
Rainelle Medical Center Inc,-80.7784895,37.9687264,0,"176 Medical Center Dr, Rainelle, WV 25962, USA",(304) 438-6188,,
New River Health - Scarbro,-81.1605703,37.9407216,0,"908 Scarbro Rd, Scarbro, WV 25917, USA",(304) 469-2905,,
FamilyCare Health Center,-81.9358522,38.4524472,0,"97 Great Teays Blvd #6, Scott Depot, WV 25560, USA",(304) 757-6999,,
Community Health Systems Inc,-89.0308763,42.5202089,0,"74 Eclipse Ctr, Beloit, WI 53511, USA",(608) 361-0311,,
NorthLakes Community Clinic,-91.4151202,46.5648044,0,"7665 US-2, Iron River, WI 54847, USA",(888) 834-4551,,
Kenosha Community Health Center (KCHC),-87.8274596,42.5779383,0,"6226 14th Ave, Kenosha, WI 53143, USA",(262) 656-0044,,
Access Community Health Center,-89.4278295,43.0343809,0,"2901 W Beltline Hwy, Madison, WI 53713, USA",(608) 443-5500,,
Family Health Center of Marshfield,-90.1787781,44.6821333,0,"1307 N St Joseph Ave, Marshfield, WI 54449, USA",(715) 221-5700,,
Outreach Community Health Centers Outpatient Clinic,-87.9125336,43.0897261,0,"210 W Capitol Dr, Milwaukee, WI 53212, USA",(414) 727-6320,,
Progressive Community Health Centers - Lisbon Avenue Health Center,-87.9583975,43.0549654,0,"3522 W Lisbon Ave, Milwaukee, WI 53208, USA",(414) 935-8000,,
"SIXTEENTH STREET COMMUNITY HEALTH CENTERS, INC- United Community Center Geriatric Clinic",-87.920727,43.0202836,0,"730 W Washington St, Milwaukee, WI 53204, USA",(414) 672-1353,,
Family Health La Clinica,-89.2782145,44.0670625,0,"400 S Townline Rd, Wautoma, WI 54982, USA",(920) 787-5514,,
Community Health Center of Central Wyoming,-106.2579074,42.8419279,0,"5000 Blackmore Rd, Casper, WY 82609, USA",(307) 233-6000,,
BETHEL FAMILY CLINIC,-161.7624499,60.79608003,0,"4th Ave & Main St, Bethel, AK",907-543-3773,,
KODIAK AREA NATIVE ASSOCIATION,-152.355082,57.81176899,0,"3449 E Rezanof Dr, Kodiak, AK",907-486-9870,,
LEE COUNTY COOPERATIVE CLINIC,-90.77465172,34.77053277,0,"530 Atkins Blvd, Marianna, AR",870-295-5225,,
"JEFFERSON COMPREHENSIVE CARE SYSTEM, INC.",-91.99830443,34.21892701,0,"1101 S Tennessee St, Pine Bluff, AR",870-543-2315,,
"EAST ARKANSAS FAMILY HEALTH CENTER, INC.",-90.17588355,35.15496985,0,"900 N 7th St, West Memphis, AR",870-735-3842,,
OMNI FAMILY HEALTH,-119.4534105,35.14908676,1,"1100 4th St, Taft, CA",800-300-6664,,
OMNI FAMILY HEALTH,-119.4658697,35.39970252,1,"277 E Front St, Buttonwillow, CA",800-300-6664,,
OMNI FAMILY HEALTH,-119.6947499,35.61607749,1,"21138 Paso Robles Hwy, Lost Hills, CA",800-300-6664,,
OMNI FAMILY HEALTH,-119.6633644,36.32713178,1,"355 Campus Dr Ste E, Hanford, CA",800-300-6664,,
OMNI FAMILY HEALTH,-119.7879988,36.74081005,1,"2505 Merced St, Fresno, CA",800-300-6664,,
OMNI FAMILY HEALTH,-119.7622758,36.77950141,1,"3748 E Shields Ave, Fresno, CA",800-300-6664,,
OMNI FAMILY HEALTH,-119.7722125,36.80218301,1,"4646 N 1st St, Fresno, CA",800-300-6664,,
OMNI FAMILY HEALTH,-119.7720167,36.80585075,1,"4844 N 1st St Ste 104, Fresno, CA",800-300-6664,,
OMNI FAMILY HEALTH,-119.7267133,36.76771323,1,"1900 N Gateway Blvd Ste 116, Fresno, CA",800-300-6664,,
OMNI FAMILY HEALTH,-119.772681,36.82523299,1,"6107 N 1st St, Fresno, CA",800-300-6664,,
OMNI FAMILY HEALTH,-119.34989,35.5942625,1,"2101 7th St, Wasco, CA",800-300-6664,,
OMNI FAMILY HEALTH,-119.2497976,35.76759787,1,"912 Fremont St, Delano, CA",800-300-6664,,
OMNI FAMILY HEALTH,-119.2457325,35.7692924,1,"1001 Main St, Delano, CA",800-300-6664,,
OMNI FAMILY HEALTH,-119.2451126,35.77250254,1,"1215 Jefferson St, Delano, CA",800-300-6664,,
OMNI FAMILY HEALTH,-119.45265,36.59801909,1,"925 G St, Reedley, CA",800-300-6664,,
OMNI FAMILY HEALTH,-119.2771714,35.50326295,1,"320 James St, Shafter, CA",800-300-6664,,
OMNI FAMILY HEALTH,-119.2647583,35.4952447,1,"659 S Central Valley Hwy, Shafter, CA",800-300-6664,,
OMNI FAMILY HEALTH,-119.2645486,35.49511703,1,"655 S Central Valley Hwy, Shafter, CA",800-300-6664,,
OMNI FAMILY HEALTH,-119.4326808,36.60418389,1,"1530 E Manning Ave, Reedley, CA",800-300-6664,,
OMNI FAMILY HEALTH,-119.295549,36.32638252,1,"311 W Noble Ave, Visalia, CA",800-300-6664,,
OMNI FAMILY HEALTH,-117.6671124,35.64249206,1,"1133 Chelsea St, Ridgecrest, CA",800-300-6664,,
OMNI FAMILY HEALTH,-119.0960427,36.21418287,1,"860 Sequoia Ave, Lindsay, CA",800-300-6664,,
OMNI FAMILY HEALTH,-119.1550111,36.29726135,1,"1110 W Visalia Rd Ste 102, Exeter, CA",800-300-6664,,
OMNI FAMILY HEALTH,-118.4520028,35.13415603,1,"161 N Mill St, Tehachapi, CA",800-300-6664,,
OMNI FAMILY HEALTH,-119.0209004,35.40753721,1,"210 N Chester Ave, Bakersfield, CA",800-300-6664,,
OMNI FAMILY HEALTH,-119.0315731,35.40855975,1,"525 Roberts Ln, Bakersfield, CA",800-300-6664,,
OMNI FAMILY HEALTH,-119.0211724,35.38528196,1,"2811 H St, Bakersfield, CA",800-300-6664,,
OMNI FAMILY HEALTH,-119.0561469,35.36447166,1,"4900 California Ave Ste 100B, Bakersfield, CA",800-300-6664,,
OMNI FAMILY HEALTH,-119.019096,35.3175825,1,"1451 White Ln, Bakersfield, CA",800-300-6664,,
OMNI FAMILY HEALTH,-119.050535,35.33849401,1,"4131 Ming Ave, Bakersfield, CA",800-300-6664,,
OMNI FAMILY HEALTH,-119.1100671,35.39146835,1,"3409 Calloway Dr Unit 300, Bakersfield, CA",800-300-6664,,
OMNI FAMILY HEALTH,-119.051854,35.33831401,1,"1701 Stine Rd, Bakersfield, CA",800-300-6664,,
OMNI FAMILY HEALTH,-119.110165,35.367089,1,"1014 Calloway Dr Bldg F, Bakersfield, CA",800-300-6664,,
OMNI FAMILY HEALTH,-119.1111383,35.36767309,1,"1022 Calloway Dr, Bakersfield, CA",800-300-6664,,
OMNI FAMILY HEALTH,-119.054266,35.29596314,1,"4600 Panama Ln Unit 102B, Bakersfield, CA",800-300-6664,,
OMNI FAMILY HEALTH,-119.081645,35.31718419,1,"4151 Mexicali Dr, Bakersfield, CA",800-300-6664,,
BORREGO COMMUNITY HEALTH FOUNDATION,-116.329047,33.19398102,0,"4343 Yaqui Pass Rd, Borrego Springs, CA",760-767-5051,,
ALL-INCLUSIVE COMMUNITY HEALTH CENTER,-118.3204389,34.18932754,0,"1311 N San Fernando Blvd, Burbank, CA",818-843-9900 x53087,,
ST. JUDE NEIGHBORHOOD HEALTH CENTERS,-117.9287175,33.86360401,0,"731 S Highland Ave, Fullerton, CA",714-446-5100,,
SAN BENITO HEALTH FOUNDATION,-121.4169956,36.85335042,0,"351 Felice Dr, Hollister, CA",831-637-5783,,
FRIENDS OF FAMILY HEALTH CENTER,-117.9592175,33.92778701,0,"501 S Idaho St, La Habra, CA",562-690-0400,,
BARTZ-ALTADONNA COMMUNITY HEALTH CENTER,-118.122245,34.66992275,0,"43322 Gingham Ave, Lancaster, CA",661-874-4050,,
CENTRAL NEIGHBORHOOD HEALTH FOUNDATION,-118.2725504,34.02599635,0,"2614 S Grand Ave, Los Angeles, CA",323-234-5000,,
CENTRAL NEIGHBORHOOD HEALTH FOUNDATION,-118.2555138,34.01755347,0,"2707 S Central Ave, Los Angeles, CA",323-234-5000,,
KHEIR CLINIC,-118.3037243,34.06358361,0,"3727 W 6th St Ste 200, Los Angeles, CA",213-235-2500,,
QUEENSCARE HEALTH CENTERS,-118.280432,34.07272014,0,"150 N Reno St, Los Angeles, CA",213-380-7298,,
QUEENSCARE HEALTH CENTERS,-118.2902075,34.0955879,0,"4618 Fountain Ave, Los Angeles, CA",323-953-7170,,
QUEENSCARE HEALTH CENTERS,-118.218877,34.12374501,0,"4448 York Blvd, Los Angeles, CA",323-344-5233,,
QUEENSCARE HEALTH CENTERS,-118.160465,34.03327251,0,"4816 E 3rd St, Los Angeles, CA",323-669-4305,,
SOUTH CENTRAL FAMILY HEALTH CENTER,-118.256771,34.00305998,0,"4425 S Central Ave, Los Angeles, CA",323-908-4200,,
UNIVERSAL COMMUNITY HEALTH CENTER,-118.2531376,34.02582305,0,"1005 E Washington Blvd, Los Angeles, CA",323-233-3100,,
WATTS HEALTHCARE CORPORATION,-118.2461939,33.94268807,0,"10300 Compton Ave, Los Angeles, CA",323-564-4331,,
HARMONY HEALTH MEDICAL CLINIC AND FAMILY RESOURCE CENTER,-121.6174946,39.14773846,0,"1215 Plumas St Ste 1400, Yuba City, CA",530-777-3190,,
HARMONY HEALTH MEDICAL CLINIC AND FAMILY RESOURCE CENTER,-121.6175863,39.14445101,0,"399 Del Norte Ave, Yuba City, CA",530-751-2273,,
HARMONY HEALTH MEDICAL CLINIC AND FAMILY RESOURCE CENTER,-121.5458191,39.12783253,0,"1908 N Beale Rd Ste E, Marysville, CA",530-743-6888,,
VALLEY COMMUNITY HEALTHCARE,-118.4138275,34.194434,0,"6801 Coldwater Canyon Ave, North Hollywood, CA",818-763-8836,,
TRI-STATE COMMUNITY HEALTHCARE CENTER,-114.6183476,34.832735,0,"1402 Bailey Ave, Needles, CA",760-326-0222,,
SIERRA FAMILY MEDICAL CLINIC INC,-121.0351325,39.3660826,0,"15301 Tyler Foote Rd, Nevada City, CA",530-292-3478,,
"MISSION CITY COMMUNITY NETWORK, INC.",-118.4636949,34.22818013,0,"15206 Parthenia St, North Hills, CA",818-895-3100,,
"UNICARE COMMUNITY HEALTH CENTER, INC.",-117.3138872,34.09103274,0,"570 S Mount Vernon Ave Ste G, San Bernardino, CA",909-884-6700,,
"UNICARE COMMUNITY HEALTH CENTER, INC.",-117.6512475,34.06804802,0,"437 N Euclid Ave, Ontario, CA",909-988-2555,,
"CENTER FOR FAMILY HEALTH & EDUCATION, INC.",-118.4502913,34.22815712,0,"8727 Van Nuys Blvd Ste 201, Panorama City, CA",818-899-5555,,
"CENTER FOR FAMILY HEALTH & EDUCATION, INC.",-118.4502938,34.22812347,0,"8727 Van Nuys Blvd Ste 103, Panorama City, CA",818-899-5555,,
COMMUNITY MEDICINE INC.,-118.150038,33.88915247,0,"8540 Alondra Blvd Ste B2, Paramount, CA",562-602-2508,,
"AXIS COMMUNITY HEALTH, INC.",-121.874335,37.66158202,0,"4361 Railroad Ave, Pleasanton, CA",925-201-6017,,
POMONA COMMUNITY HEALTH CENTER,-117.7543226,34.05280105,0,"750 S Park Ave Rm 101, Pomona, CA",909-622-6516,,
POMONA COMMUNITY HEALTH CENTER,-117.7215245,34.06299637,0,"1450 E Holt Ave, Pomona, CA",909-630-7927,,
SHASTA COMMUNITY HEALTH CENTER,-122.385355,40.58349934,0,"1035 Placer St, Redding, CA",530-246-5710,,
HILL COUNTRY COMMUNITY CLINIC,-121.9398877,40.80411808,0,"29632 CA-299 E, Bella Vista, CA",530-337-6243,,
CARES COMMUNITY HEALTH,-121.4813254,38.57055663,0,"1500 21st St Bldg B, Sacramento, CA",916-914-6234,,
SAN DIEGO FAMILY CARE,-117.1692748,32.7879584,0,"7011 Linda Vista Rd, San Diego, CA",858-279-9676,,
NORTH EAST MEDICAL SERVICES,-122.4090329,37.79988493,1,"1520 Stockton St, San Francisco, CA",415-391-9686,,
RITTER CENTER,-122.5251276,37.97150888,0,"16 Ritter St, San Rafael, CA",415-457-8182,,
"SOUTHLAND INTEGRATED SERVICES, INC.",-117.9607653,33.78849516,0,"9862 Chapman Ave Ste B, Garden Grove, CA",714-620-7001,,
AMERICAN INDIAN HEALTH & SERVICES,-119.76126,34.44047253,0,"4141 State St, Santa Barbara, CA",805-681-7356 x222,,
WESTSIDE FAMILY HEALTH CENTER,-105.024131,39.73433598,0,"1100 Federal Blvd, Denver, CA",303-436-4200,,
WESTSIDE FAMILY HEALTH CENTER,-118.4160142,34.01137433,0,"3861 Sepulveda Blvd, Culver City, CA",310-450-2191,,
FAMILIES TOGETHER OF ORANGE COUNTY,-117.831329,33.74605398,0,"661 W 1st St Ste A, Tustin, CA",714-665-9890,,
FAMILIES TOGETHER OF ORANGE COUNTY,-117.831168,33.74621999,0,"661 W 1st St Ste G, Tustin, CA",714-665-9890,,
ELICA HEALTH CENTERS,-121.525914,38.57080901,0,"155 15th St, West Sacramento, CA",916-375-8981,,
WILMINGTON COMMUNITY CLINIC,-118.2627245,33.7831597,0,"1009 N Avalon Blvd, Wilmington, CA",310-549-5760,,
AMPLA HEALTH,-121.5514003,39.50160414,0,"2800 Lincoln St, Oroville, CA",530-891-9048,,
"SUMMIT COMMUNITY CARE CLINIC, INC.",-106.076622,39.57088539,0,"360 Peak One Dr Ste 100, Frisco, CO",970-668-4040,,
CORNELL SCOTT-HILL HEALTH CORPORATION,-72.93912069,41.29767911,0,"400 Columbus Ave, New Haven, CT",203-503-3000,,
"STAYWELL HEALTH CARE, INC.",-73.03926716,41.55714545,0,"80 Phoenix Ave, Waterbury, CT",203-756-8021 x3012,,
"GENERATIONS FAMILY HEALTH CENTER, INC.",-72.22451382,41.71518095,0,"40 Mansfield Ave, Willimantic, CT",860-450-7471,,
"TREASURE COAST COMMUNITY HEALTH, INC.",-80.57663282,27.76770831,1,"12196 County Road 512, Fellsmere, FL",772-571-8828,,
"CITRUS HEALTH NETWORK, INC.",-80.32227618,25.85975112,0,"4175 W 20th Ave, Hialeah, FL",305-825-0300,,
"ESCAMBIA COMMUNITY CLINICS, INC.",-87.22110485,30.43347715,1,"14 W Jordan St Ste 2G, Pensacola, FL",850-436-4630,,
"COMMUNITY HEALTH CENTERS, INC.",-97.30549075,35.5076194,1,"12716 NE 36th St, Choctaw, FL",405-203-7628,,
"EAST GEORGIA HEALTHCARE CENTER, INC.",-82.35960548,31.75706406,1,"1636 Hatch Pkwy S, Baxley, GA",912-705-5656,,
"EAST GEORGIA HEALTHCARE CENTER, INC.",-82.36358526,32.20108722,1,"118 Alice Coleman Dr, Vidalia, GA",478-537-6565,,
"EAST GEORGIA HEALTHCARE CENTER, INC.",-82.59486879,32.37483912,1,"452 Second St, Soperton, GA",912-529-5533,,
"EAST GEORGIA HEALTHCARE CENTER, INC.",-82.33383635,32.59969613,1,"215 N Coleman St, Swainsboro, GA",478-237-6262 x1513,,
WAIMANALO HEALTH CENTER,-157.7163103,21.34716637,0,"41-1347 Kalanianaole Hwy, Waimanalo, HI",808-259-7948,,
BENEWAH MEDICAL CENTER,-116.8915234,47.33452441,0,"427 12th St, Plummer, ID",208-686-1931,,
BELOVED COMMUNITY FAMILY WELLNESS CENTER,-87.64450915,41.76994508,0,"6821 S Halsted St, Chicago, IL",773-651-3629,,
"CHICAGO FAMILY HEALTH CENTER, INC.",-87.55254011,41.72948529,0,"9119 S Exchange Ave, Chicago, IL",773-768-5000,,
CHRISTIAN COMMUNITY HEALTH CENTER,-87.64318799,41.7169831,0,"9718 S Halsted St, Chicago, IL",773-233-4100,,
COMMUNITY HEALTH PARTNERSHIP OF ILLINOIS,-89.75689275,40.93021391,0,"112 E Main St, Princeville, IL",309-363-5089,,
COMMUNITY HEALTH PARTNERSHIP OF ILLINOIS,-89.11845305,41.55151335,0,"1009 Main St, Mendota, IL",815-539-6124,,
COMMUNITY HEALTH PARTNERSHIP OF ILLINOIS,-87.86358798,41.12173935,0,"202 N Schuyler Ave Ste 206, Kankakee, IL",815-932-6045,,
COMMUNITY HEALTH PARTNERSHIP OF ILLINOIS,-88.31396488,41.7525603,0,"157 S Lincoln Ave Ste C, Aurora, IL",630-966-4572,,
COMMUNITY HEALTH PARTNERSHIP OF ILLINOIS,-88.61439115,42.42139363,0,"62 N Ayer St Ste A, Harvard, IL",815-943-4339,,
FAMILY CHRISTIAN HEALTH CENTER,-87.65797654,41.60818669,0,"31 W 155th St, Harvey, IL",708-596-5177,,
FAMILY CHRISTIAN HEALTH CENTER,-87.6020688,41.6371391,0,"713 E 142nd St, Dolton, IL",708-596-5177,,
WILL COUNTY COMMUNITY HEALTH CENTER,-88.06879212,41.50381483,0,"1106 Neal Ave, Joliet, IL",815-727-5935,,
PILLARS COMMUNITY HEALTH,-87.87079287,41.81481093,0,"23 W Calendar Ave, La Grange, IL",708-745-5277,,
PCC COMMUNITY WELLNESS CENTER,-87.77549566,41.88806336,0,"14 Lake St, Oak Park, IL",708-383-0113,,
LIFESPRING INC.,-85.74210923,38.27408201,0,"460 Spring St, Jeffersonville, IN",812-280-2080,,
EASTERN IOWA HEALTH CENTER,-91.6553763,41.98313342,0,"1201 3rd Ave SE, Cedar Rapids, IA",319-730-7300,,
ALL CARE HEALTH CENTER,-95.85310047,41.25298524,0,"902 S 6th St, Council Bluffs, IA",712-325-1990,,
CRESCENT COMMUNITY HEALTH CENTER,-90.66425003,42.50950902,0,"1690 Elm St Ste 400, Dubuque, IA",563-690-2860,,
SIOUXLAND COMMUNITY HEALTH CENTER,-96.40355731,42.50140942,0,"1021 Nebraska St, Sioux City, IA",712-252-2477,,
ATCHISON COMMUNITY HEALTH CLINIC,-95.11518436,39.57904002,0,"1412 N 2nd St, Atchison, KS",913-367-4879,,
"PARK DUVALLE COMMUNITY HEALTH CENTER, INC.",-85.80688735,38.22699172,0,"3015 Wilson Ave, Louisville, KY",502-774-4401,,
"SHAWNEE CHRISTIAN HEALTHCARE CENTER, INC.",-85.81328634,38.26032332,0,"234 Amy Ave, Louisville, KY",502-778-0001,,
RKM PRIMARY CARE,-91.02191195,30.86429448,0,"11990 Jackson St, Clinton, LA",225-683-5292 x10212,,
COMMON GROUND HEALTH CLINIC,-90.05175997,29.94110899,0,"1400 Teche St, New Orleans, LA",504-361-9800,,
SEBASTICOOK FAMILY DOCTORS,-69.28074182,44.84163289,0,"118 Moosehead Trl Ste 5, Newport, ME",207-368-5189,,
KATAHDIN VALLEY HEALTH CENTER,-68.45195113,45.95848829,0,"529 S Patten Rd, Patten, ME",207-538-3700,,
"FAMILY HEALTH CENTERS OF BALTIMORE, INC.",-76.62262699,39.24951501,0,"631 Cherry Hill Rd, Brooklyn, MD",410-354-2000,,
HARVARD STREET NEIGHBORHOOD HEALTH CENTER INC,-71.08833234,42.29403447,0,"895 Blue Hill Ave, Dorchester, MA",617-825-3400,,
"HOLYOKE HEALTH CENTER, INC.",-72.60852501,42.2073438,1,"230 Maple St, Holyoke, MA",413-420-2111,,
WHITTIER STREET HEALTH CENTER,-71.09208668,42.3329659,1,"1290 Tremont St, Roxbury Crossing, MA",617-427-1000,,
"FAMILY HEALTH CENTER OF WORCESTER, INC.",-71.8135771,42.25928126,0,"26 Queen St, Worcester, MA",508-860-7700,,
BALDWIN FAMILY HEALTH CARE,-85.85153725,43.90344799,1,"1615 Michigan Ave, Baldwin, MI",231-745-2743,,
"GRACE HEALTH, INC.",-85.18911954,42.33015251,1,"181 Emmett St W, Battle Creek, MI",269-966-2600,,
"GRACE HEALTH, INC.",-84.75236288,42.24467076,1,"115 Market Pl, Albion, MI",517-629-6540,,
"COVERED BRIDGE HEALTHCARE OF ST. JOSEPH COUNTY, INC.",-85.51392206,41.92309659,0,"658 E Main St, Centreville, MI",269-467-3228,,
"COVENANT COMMUNITY CARE, INC.",-82.92716004,42.424405,1,"20901 Moross Rd, Detroit, MI",313-554-0485,,
"COVENANT COMMUNITY CARE, INC.",-83.16319871,42.49430622,1,"27776 Woodward Ave, Royal Oak, MI",248-556-4900,,
NATIVE AMERICAN COMMUNITY CLINIC,-93.256728,44.96207501,0,"1213 E Franklin Ave, Minneapolis, MN",612-872-8086,,
"OPEN CITIES HEALTH CENTER, INC.",-93.14921434,44.95333922,0,"409 Dunlap St N, Saint Paul, MN",651-290-9200,,
"CENTRAL MISSISSIPPI HEALTH SERVICES, INC.",-90.20514989,32.2909996,0,"1134 Winter St, Jackson, MS",601-948-5572,,
"FAMILY HEALTH CENTER, INC.",-89.13993419,31.6893344,0,"117 S 11th Ave, Laurel, MS",601-425-3033,,
"FAMILY HEALTH CENTER, INC.",-88.64076145,31.67758942,0,"713 Lomax Ave, Waynesboro, MS",601-425-3033 x601,,
"FAMILY HEALTH CENTER, INC.",-85.58455502,42.30270299,0,"117 W Paterson St, Kalamazoo, MS",269-349-4257,,
"AMITE COUNTY MEDICAL SERVICES, INC.",-90.79469764,31.16301148,0,"102 W Freedom Dr, Liberty, MS",601-657-8091,,
"DELTA HEALTH CENTER, INC.",-90.72615005,33.87963248,0,"702 Ml King Dr, Mound Bayou, MS",662-741-2151,,
"COMPASS HEALTH, INC.",-94.36397096,38.92887402,0,"901 NE Independence Ave, Lees Summit, MO",816-966-0900,,
"COMPASS HEALTH, INC.",-92.35511191,38.90871257,0,"1000 W Nifong Blvd Bldg 6, Columbia, MO",573-442-1690,,
"COMPASS HEALTH, INC.",-90.97456761,38.98857685,0,"91 Troy Sq, Troy, MO",844-853-8937,,
"COMPASS HEALTH, INC.",-90.51910396,38.826226,0,"3785 New Town Blvd, Saint Charles, MO",844-853-8937,,
KANSAS CITY CARE CLINIC,-94.55941521,39.00721175,0,"2340 E Meyer Blvd Ste 200, Kansas City, MO",816-753-5144,,
KANSAS CITY CARE CLINIC,-94.59034915,39.06337486,0,"3515 Broadway Blvd, Kansas City, MO",816-753-5144,,
KANSAS CITY CARE CLINIC,-94.57109275,39.07237937,0,"1106 E 30th St Ste B, Kansas City, MO",816-753-5144,,
KANSAS CITY CARE CLINIC,-94.52789915,39.10545336,0,"4601 Independence Ave, Kansas City, MO",816-241-6334,,
GREAT MINES HEALTH CENTER,-90.77554539,37.91818859,0,"1 Southtowne Dr, Potosi, MO",573-438-9355,,
GREAT MINES HEALTH CENTER,-90.42655308,37.79021267,0,"508 W Pine St, Farmington, MO",636-438-9355,,
CARESTL HEALTH,-90.27242103,38.66834364,0,"5471 Dr Martin Luther King Dr, Saint Louis, MO",314-367-5820,,
CARESTL HEALTH,-90.23635476,38.65715461,0,"2425 Whittier St, Saint Louis, MO",314-371-3100,,
CARESTL HEALTH,-90.25093444,38.70540443,0,"5541 Riverview Blvd, Saint Louis, MO",314-389-4566,,
CARESTL HEALTH,-90.23025956,38.67799754,0,"4500 Pope Ave, Saint Louis, MO",314-385-3990,,
"HEARTLAND HEALTH CENTER, INC.",-98.37915949,40.94599247,0,"3307 W Capital Ave, Grand Island, NE",308-382-4297,,
FIRSTMED HEALTH AND WELLNESS CENTER,-115.1186074,36.12901598,0,"3343 S Eastern Ave, Las Vegas, NV",702-731-0909,,
SILVER STATE HEALTH SERVICES,-115.2255992,36.14973001,0,"1909 S Jones Blvd, Las Vegas, NV",702-937-3418,,
PROJECT HOPE,-71.07068802,42.31736101,0,"45 Magnolia St, Dorchester, NJ",617-442-1880,,
MONMOUTH FAMILY HEALTH CENTER,-73.99015368,40.30412062,0,"270 Broadway, Long Branch, NJ",732-923-7145,,
"NEWARK COMMUNITY HEALTH CENTERS, INC.",-74.20625431,40.6894502,0,"101 Ludlow St, Newark, NJ",973-565-0355,,
"NEWARK COMMUNITY HEALTH CENTERS, INC.",-74.15891559,40.77536555,0,"741 Broadway, Newark, NJ",973-483-1300,,
"NEWARK COMMUNITY HEALTH CENTERS, INC.",-74.15870939,40.77561168,0,"751 Broadway, Newark, NJ",973-483-1300,,
"SAINT JAMES HEALTH, INC.",-74.16269264,40.72906618,0,"228 Lafayette St, Newark, NJ",973-789-8111,,
JEWISH RENAISSANCE MEDICAL CENTER,-74.26946848,40.50857682,0,"275 Hobart St, Perth Amboy, NJ",732-376-9333,,
HIDALGO MEDICAL SERVICES,-108.706627,32.33878311,0,"530 De Moss St, Lordsburg, NM",505-534-9910,,
LA FAMILIA MEDICAL CENTER,-105.9602634,35.68602402,0,"1035 Alto St, Santa Fe, NM",505-982-4425,,
LA CLINICA DEL PUEBLO,-77.03516683,38.92591001,0,"2831 15th St NW, Washington, NM",202-462-4788,,
"OAK ORCHARD COMMUNITY HEALTH CENTER, INC.",-77.95057904,43.22005749,0,"300 West Ave, Brockport, NY",585-637-5319 x214,,
"OAK ORCHARD COMMUNITY HEALTH CENTER, INC.",-78.13261931,42.73868492,0,"81 S Main St, Warsaw, NY",585-637-3905,,
EZRA MEDICAL CENTER,-73.98523962,40.64085566,0,"1312 38th St, Brooklyn, NY",718-686-7600,,
BETANCES HEALTH CENTER,-73.98368369,40.71392565,0,"280 Henry St, New York, NY",212-227-8408 x101,,
"CHARLES B. WANG COMMUNITY HEALTH CENTER, INC.",-73.82197941,40.751591,1,"13743 45th Ave, Flushing, NY",929-362-3018,,
"CHARLES B. WANG COMMUNITY HEALTH CENTER, INC.",-73.83012881,40.76176008,1,"13626 37th Ave, Flushing, NY",718-886-1212,,
"CHARLES B. WANG COMMUNITY HEALTH CENTER, INC.",-73.99984584,40.71743955,1,"125 Walker St, New York, NY",212-226-8866,,
"CHARLES B. WANG COMMUNITY HEALTH CENTER, INC.",-74.001283,40.71876,1,"268 Canal St, New York, NY",212-379-6988,,
"HERITAGE HEALTH AND HOUSING, INC.",-73.946908,40.82539302,0,"1727 Amsterdam Ave, New York, NY",212-862-0054,,
"OPEN DOOR FAMILY MEDICAL CENTER, INC.",-73.86248038,41.16137196,1,"165 Main St, Ossining, NY",914-941-1263,,
BEACON CHRISTIAN COMMUNITY HEALTH CENTER,-74.15860688,40.62634172,0,"2079 Forest Ave, Staten Island, NY",718-815-6560 x200,,
"SYRACUSE COMMUNITY HEALTH CENTER, INC.",-76.15038227,43.03978488,0,"819 S Salina St, Syracuse, NY",888-867-2025,,
"ANSON REGIONAL MEDICAL SERVICES, INC.",-80.07860428,34.96794004,0,"203 Salisbury St, Wadesboro, NC",704-694-6700 x223,,
UNITED HEALTH CENTERS,-80.17993936,36.07695497,0,"3009A Waughtown St, Winston Salem, NC",336-293-8728,,
COAL COUNTRY COMMUNITY HEALTH CENTER,-101.7824912,47.27614212,1,"1312 Highway 49 N, Beulah, ND",701-873-7788,,
FAIRFIELD COMMUNITY HEALTH CENTER,-88.37447501,38.38110085,0,"209 NW 11th St, Fairfield, OH",618-842-4470,,
FAIRFIELD COMMUNITY HEALTH CENTER,-82.57939169,39.71369743,0,"1155 E Main St, Lancaster, OH",740-689-6758,,
"COMMUNITY HEALTH CONNECTION, INC.",-95.86589092,36.13335912,0,"9912 E 21st St, Tulsa, OK",918-622-0641,,
WHITE BIRD CLINIC,-123.087756,44.04664747,0,"341 E 12th Ave, Eugene, OR",541-342-8255,,
OUTSIDE IN,-122.6868099,45.51771099,0,"1132 SW 13th Ave, Portland, OR",503-535-3804,,
NORTH SIDE CHRISTIAN HEALTH CENTER,-80.01401477,40.37536981,0,"816 Middle Rd, Pittsburgh, PA",412-321-4001,,
SQUIRREL HILL HEALTH CENTER,-79.92578852,40.4168995,0,"4516 Browns Hill Rd, Pittsburgh, PA",412-422-7442,,
BERKS COMMUNITY HEALTH CENTER,-75.9210736,40.33521308,0,"838 Penn St, Reading, PA",610-988-4838,,
FAMILY FIRST HEALTH CORPORATION,-76.72684087,39.96075252,0,"116 S George St, York, PA",717-846-1995,,
"PRYMED MEDICAL CARE, INC.",-66.46857653,18.33855671,0,"13 Carr 149, Ciales, PR",787-871-0601,,
"CONCILIO DE SALUD INTEGRAL DE LOIZA, INC.",-65.88815775,18.39733717,0,"187 PR-188, Canóvanas, PR",787-876-3130,,
"WOOD RIVER HEALTH SERVICES, INC.",-71.7360673,41.4891714,0,"823 Main St, Hope Valley, RI",401-539-2461,,
"BLACKSTONE VALLEY COMMUNITY HEALTH CARE, INC.",-71.38488777,41.87643183,0,"39 East Ave, Pawtucket, RI",401-722-0081,,
"HOPEHEALTH, INC.",-79.75891799,34.19362301,0,"600 E Palmetto St, Florence, SC",843-667-9414,,
"FAMILY HEALTH CENTERS, INC.",-80.83889587,33.52886919,0,"3310 Magnolia St, Orangeburg, SC",803-531-8951,,
"COMMUNITY MEDICINE FOUNDATION, INC.",-81.02996697,34.90748385,0,"1131 Saluda St, Rock Hill, SC",803-325-7744,,
"MEMPHIS HEALTH CENTER, INC.",-90.05019901,35.12451701,0,"360 E Eh Crump Blvd, Memphis, TN",901-261-2000,,
HOPE FAMILY HEALTH SERVICES,-83.05430999,37.74459002,0,"214 Beriah Blvd, Salyersville, TN",606-349-5126,,
PEOPLE'S COMMUNITY CLINIC,-97.72324799,30.28748598,0,"2909 N Interstate 35, Austin, TX",512-478-4939,,
HEALTH CENTER OF SOUTHEAST TEXAS,-95.08346632,30.3443056,0,"307 N William Barnett Ave, Cleveland, TX",281-592-2224,,
"LOS BARRIOS UNIDOS COMMUNITY CLINIC, INC.",-96.83631003,32.77857746,0,"809 Singleton Blvd, Dallas, TX",214-571-6132,,
"LOS BARRIOS UNIDOS COMMUNITY CLINIC, INC.",-96.83589781,32.78011143,0,"3111 Sylvan Ave, Dallas, TX",214-571-6132,,
MISSION EAST DALLAS AND METROPLEX PROJECT,-96.64731001,32.82608001,0,"4550 Gus Thomasson Rd Ste 36, Mesquite, TX",972-682-8917,,
CENTRO SAN VICENTE,-106.3555648,31.72322272,1,"8061 Alameda Ave, El Paso, TX",915-859-7545,,
"COMMUNITY HEALTH CENTERS OF SOUTH CENTRAL TEXAS, INC.",-97.45483095,29.50186365,0,"228 Saint George St, Gonzales, TX",830-672-6511 x205,,
BEE BUSY WELLNESS CENTER,-95.53094847,29.65593761,0,"8785 W Bellfort St, Houston, TX",713-771-2292,,
BEE BUSY WELLNESS CENTER,-95.552598,29.67804899,0,"9896 Bissonnet St Ste 625, Houston, TX",713-774-8800,,
"CACTUS HEALTH SERVICES, INC.",-102.8791026,30.89107735,0,"700 N Main St, Fort Stockton, TX",432-336-8110,,
"BEAR LAKE COMMUNITY HEALTH CENTER, INC.",-111.4012895,41.94680974,0,"325 W Logan Rd, Garden City, UT",435-946-3660,,
JOHNSON HEALTH CENTER,-79.15162639,37.41613076,0,"320 Federal St, Lynchburg, VA",434-947-5967,,
STONY CREEK COMMUNITY HEALTH CENTER,-77.40037708,36.94744391,0,"12454 Hartley St, Stony Creek, VA",434-246-6100,,
COWLITZ FAMILY HEALTH CENTER,-122.9345848,46.13317327,1,"1057 12th Ave, Longview, WA",360-636-3892,,
MOSES LAKE COMMUNITY HEALTH CENTER,-119.2625085,47.12968668,1,"605 S Coolidge St, Moses Lake, WA",509-765-0674,,
COUNTRY DOCTOR COMMUNITY CLINIC,-122.3072757,47.62341699,1,"500 19th Ave E, Seattle, WA",206-299-1600,,
NEIGHBORCARE HEALTH,-122.337739,47.66108702,0,"1629 N 45th St, Seattle, WA",206-633-3350,,
SEATTLE INDIAN HEALTH BOARD,-122.318103,47.597232,0,"611 12th Ave S, Seattle, WA",206-324-9360,,
"GERALD L. IGNACE INDIAN HEALTH CENTER, INC.",-87.92368704,43.01256302,0,"930 W Historic Mitchell St, Milwaukee, WI",414-383-9526,,
"MILWAUKEE HEALTH SERVICES, INC.",-87.91451598,43.06532899,0,"2555 N Dr Martin Luther King Jr Dr, Milwaukee, WI",414-372-8080 x1100,,
Oakland Coliseum,-122.19937,37.75169,3,"7000 Coliseum Way, Oakland, CA, 94621",,"FEMA partnered with the California Governor’s Office of Emergency Services (OES) to open the site on February 16, with the capacity to vaccinate 6,000 individuals a day. At the time of launch, 231 federal personnel were deployed to support site vaccinations and operations, including 125 from FEMA, 85 from USFS, and 21 from NDMS. The Coliseum is adjacent to the communities of Eastmont and Elmhurst, which have some of the lowest health scores in the state. The site operates 7 days a week with drive-through and pedestrian options. Appointments were reserved for faith and community-based organizations to register their communities.",6000
"California State University, Los Angeles",-118.1714,34.0624067,3,"5151 State University Dr, Los Angeles, CA, 90032",,"FEMA partnered with the California Governor’s Office of Emergency Services (OES) to open the site on February 16, with the capacity to vaccinate 6,000 individuals a day. At the time of launch, 256 personnel were deployed to support site vaccinations and operations, including 222 from DoD, 30 from FEMA, and four from USFS. The institution is one of the most diverse public universities in the country, serving a large Latinx community.The site operates 7 days a week with drive-through and pedestrian options. Appointments were reserved for faith and community-based organizations to register their communities.",6000
NRG Stadium,-95.412461,29.681248,3,"8600 Kirby Drive, Houston, TX, 77054",,"FEMA and the Texas Division of Emergency Management opened this site on February 24, with the capacity to vaccinate 6,000 individuals a day. The 11-lane drive-through site operates 7 days a week, and the state is conducting targeted outreach to provide registration support. Harris County is highly diverse, home to the nation’s second-largest Hispanic and Latinx population of any U.S. county.",6000
Fair Park,-96.762002,32.7799583,3,"3809 Grand Avenue / Dallas, Dallas, TX, 0",,"FEMA and the Texas Division of Emergency Management opened the site on February 24, with the capacity to vaccinate 3,000 individuals a day. The 12-lane drive-through site operates 7 days a week, and the state is conducting targeted outreach to provide registration support. Dallas County is highly diverse, with nearly two-thirds of its population Hispanic and/or Black.",3000
Globe Life Field,-97.082363,32.7464939,3,"734 Stadium Dr, Arlington, TX, 76011",,"FEMA and the Texas Division of Emergency Management will open the site on February 26, with the capacity to vaccinate 3,000 individuals a day. The site operates 7 days a week with drive-through and pedestrian options, and the state is conducting targeted outreach to provide registration support.",3000
Medgar Evers College,-73.956795,40.6660005,3,"1650 Bedford Ave, Brooklyn, NY, 11225",,"FEMA and New York State opened the site on February 24, with the capacity to vaccinate 3,000 individuals a day. The site is located in Crown Heights, Brooklyn. For the first week of scheduling, appointments were reserved specifically for eligible residents living in areas with low vaccination rates, before opening to all eligible borough residents. The state is additionally partnering with faith leaders to encourage sign-up, and the MTA is launching a pilot program to enhance bus service to connect New Yorkers to the vaccination site.",3000
York College,-73.795356,40.7021252,3,"94-20 Guy R Brewer Blvd, Queens, NY, 11451",,"New York State and FEMA opened the site on February 23, with the capacity to vaccinate 3,000 individuals a day. The site is located in Jamaica, Queens. For the first week of scheduling, appointments were initially reserved for eligible residents living in areas with low vaccination rates, before opening to all eligible borough residents. The state is additionally partnering with faith leaders to encourage sign-up, and the MTA is launching a pilot program to enhance bus service to connect New Yorkers to the vaccination site.",3000
Miami-Dade Community College (North Campus),-80.19038,25.7774845,3,"300 NE 2nd Ave, Miami, FL, 33132",,"With state partners, FEMA will open the site on March 3. The site is expected to vaccinate 3,000 individuals a day.",3000
Tampa Greyhound Track,-82.453453,28.0251807,3,"755 E Waters Ave, Tampa, FL, 33604",,"With state partners, FEMA will open the site on March 3. The site is expected to vaccinate 3,000 individuals a day.",3000
Valencia College West Campus,-81.465751,28.521194,3,"1800 S Kirkman Rd, Orlando, FL, 32811",,"With state partners, FEMA will open the site on March 3. The site is expected to vaccinate 3,000 individuals a day.",3000
Gateway Mall,-81.663334,30.3700621,3,"5000-7 Norwood Ave, Jacksonville, FL, 32208",,"With state partners, FEMA will open the site on March 3. The site is expected to vaccinate 3,000 individuals a day.",3000
New York National Guard Armory,-73.898263,40.9386868,3,"2 Quincy Pl, Yonkers, NY, 10701",,"FEMA and the State of New York will open the site on March 3. The site is expected to vaccinate 1,000 individuals a day and will operate with extended hours to better reach local residents.",1000
Former Kodak Hawkeye Lot,-77.625197,43.18069,3,"1345 St. Paul St, Rochester, NY, 0",,"FEMA and the State of New York will open the site on March 3. The site is expected to vaccinate 1,000 individuals a day and will operate with extended hours to better reach local residents.",1000
Delavan Grider Community Center,-78.824057,42.9225768,3,"877 E Delavan Ave, Buffalo, NY, 14215",,"FEMA and the State of New York will open the site on March 3. The site is expected to vaccinate 1,000 individuals a day and will operate with extended hours to better reach local residents.",1000
Washington Avenue Armory,-73.762747,42.6564887,3,"195 Washington Ave, Albany, NY, 12210",,"FEMA and the State of New York will open the site on March 3. The site is expected to vaccinate 1,000 individuals a day and will operate with extended hours to better reach local residents.",1000
Pennsylvania Convention Center,-75.158101,39.953817,3,"1101 Arch St, Philadelphia, PA, 19107",,"With state partners, FEMA will open this site as early as March 3. The site is expected to vaccinate 6,000 individuals a day.",6000
United Center,-87.674184,41.8813085,3,"1901 W Madison St, Chicago, IL, 60612",,"With state partners, FEMA will open this site on March 10. The site is expected to vaccinated 6,000 individuals a day.",6000
Four Seasons Center,-79.837389,36.0386676,3,"410 Four Seasons Town Centre, Greensboro, NC, 27407",,"With state partners, FEMA will open this site on March 10. The site is expected to vaccinated 3,000 individuals a day.",3000
